[
  {
    "zip": 2762,
    "centerName": "Woonsocket",
    "state": "RI"
  },
  {
    "zip": 2802,
    "centerName": "Woonsocket",
    "state": "RI"
  },
  {
    "zip": 2824,
    "centerName": "Woonsocket",
    "state": "RI"
  },
  {
    "zip": 2830,
    "centerName": "Woonsocket",
    "state": "RI"
  },
  {
    "zip": 2838,
    "centerName": "Woonsocket",
    "state": "RI"
  },
  {
    "zip": 2864,
    "centerName": "Woonsocket",
    "state": "RI"
  },
  {
    "zip": 2865,
    "centerName": "Woonsocket",
    "state": "RI"
  },
  {
    "zip": 2876,
    "centerName": "Woonsocket",
    "state": "RI"
  },
  {
    "zip": 2895,
    "centerName": "Woonsocket",
    "state": "RI"
  },
  {
    "zip": 2896,
    "centerName": "Woonsocket",
    "state": "RI"
  },
  {
    "zip": 2917,
    "centerName": "Woonsocket",
    "state": "RI"
  },
  {
    "zip": 10031,
    "centerName": "Washington Heights",
    "state": "NY"
  },
  {
    "zip": 10032,
    "centerName": "Washington Heights",
    "state": "NY"
  },
  {
    "zip": 10033,
    "centerName": "Washington Heights",
    "state": "NY"
  },
  {
    "zip": 10034,
    "centerName": "Washington Heights",
    "state": "NY"
  },
  {
    "zip": 10039,
    "centerName": "Washington Heights",
    "state": "NY"
  },
  {
    "zip": 10040,
    "centerName": "Washington Heights",
    "state": "NY"
  },
  {
    "zip": 10451,
    "centerName": "Simpson",
    "state": "NY"
  },
  {
    "zip": 10452,
    "centerName": "University Ave",
    "state": "NY"
  },
  {
    "zip": 10453,
    "centerName": "University Ave",
    "state": "NY"
  },
  {
    "zip": 10455,
    "centerName": "Simpson",
    "state": "NY"
  },
  {
    "zip": 10456,
    "centerName": "Simpson",
    "state": "NY"
  },
  {
    "zip": 10457,
    "centerName": "University Ave",
    "state": "NY"
  },
  {
    "zip": 10458,
    "centerName": "University Ave",
    "state": "NY"
  },
  {
    "zip": 10459,
    "centerName": "Simpson",
    "state": "NY"
  },
  {
    "zip": 10460,
    "centerName": "Soundview",
    "state": "NY"
  },
  {
    "zip": 10461,
    "centerName": "Parkchester",
    "state": "NY"
  },
  {
    "zip": 10462,
    "centerName": "Parkchester",
    "state": "NY"
  },
  {
    "zip": 10463,
    "centerName": "University Ave",
    "state": "NY"
  },
  {
    "zip": 10465,
    "centerName": "Parkchester",
    "state": "NY"
  },
  {
    "zip": 10466,
    "centerName": "Allerton",
    "state": "NY"
  },
  {
    "zip": 10467,
    "centerName": "Allerton",
    "state": "NY"
  },
  {
    "zip": 10468,
    "centerName": "University Ave",
    "state": "NY"
  },
  {
    "zip": 10469,
    "centerName": "Allerton",
    "state": "NY"
  },
  {
    "zip": 10472,
    "centerName": "Soundview",
    "state": "NY"
  },
  {
    "zip": 10473,
    "centerName": "Soundview",
    "state": "NY"
  },
  {
    "zip": 10474,
    "centerName": "Simpson",
    "state": "NY"
  },
  {
    "zip": 10475,
    "centerName": "Allerton",
    "state": "NY"
  },
  {
    "zip": 11096,
    "centerName": "Far Rockaway",
    "state": "NY"
  },
  {
    "zip": 11205,
    "centerName": "Bushwick",
    "state": "NY"
  },
  {
    "zip": 11206,
    "centerName": "Bushwick",
    "state": "NY"
  },
  {
    "zip": 11207,
    "centerName": "Sutter Ave",
    "state": "NY"
  },
  {
    "zip": 11208,
    "centerName": "City Line",
    "state": "NY"
  },
  {
    "zip": 11211,
    "centerName": "Bushwick",
    "state": "NY"
  },
  {
    "zip": 11212,
    "centerName": "Sutter Ave",
    "state": "NY"
  },
  {
    "zip": 11221,
    "centerName": "Bushwick",
    "state": "NY"
  },
  {
    "zip": 11233,
    "centerName": "Sutter Ave",
    "state": "NY"
  },
  {
    "zip": 11234,
    "centerName": "Canarsie",
    "state": "NY"
  },
  {
    "zip": 11236,
    "centerName": "Canarsie",
    "state": "NY"
  },
  {
    "zip": 11237,
    "centerName": "Bushwick",
    "state": "NY"
  },
  {
    "zip": 11239,
    "centerName": "Canarsie",
    "state": "NY"
  },
  {
    "zip": 11249,
    "centerName": "Bushwick",
    "state": "NY"
  },
  {
    "zip": 11366,
    "centerName": "Jamaica",
    "state": "NY"
  },
  {
    "zip": 11367,
    "centerName": "Jamaica",
    "state": "NY"
  },
  {
    "zip": 11368,
    "centerName": "Jackson Heights",
    "state": "NY"
  },
  {
    "zip": 11369,
    "centerName": "Jackson Heights",
    "state": "NY"
  },
  {
    "zip": 11370,
    "centerName": "Jackson Heights",
    "state": "NY"
  },
  {
    "zip": 11371,
    "centerName": "Jackson Heights",
    "state": "NY"
  },
  {
    "zip": 11372,
    "centerName": "Jackson Heights",
    "state": "NY"
  },
  {
    "zip": 11373,
    "centerName": "Jackson Heights",
    "state": "NY"
  },
  {
    "zip": 11374,
    "centerName": "Jackson Heights",
    "state": "NY"
  },
  {
    "zip": 11375,
    "centerName": "Jamaica",
    "state": "NY"
  },
  {
    "zip": 11377,
    "centerName": "Jackson Heights",
    "state": "NY"
  },
  {
    "zip": 11378,
    "centerName": "Bushwick",
    "state": "NY"
  },
  {
    "zip": 11379,
    "centerName": "Bushwick",
    "state": "NY"
  },
  {
    "zip": 11385,
    "centerName": "Bushwick",
    "state": "NY"
  },
  {
    "zip": 11411,
    "centerName": "Cambria Heights",
    "state": "NY"
  },
  {
    "zip": 11412,
    "centerName": "Cambria Heights",
    "state": "NY"
  },
  {
    "zip": 11413,
    "centerName": "Cambria Heights",
    "state": "NY"
  },
  {
    "zip": 11414,
    "centerName": "City Line",
    "state": "NY"
  },
  {
    "zip": 11415,
    "centerName": "Jamaica",
    "state": "NY"
  },
  {
    "zip": 11416,
    "centerName": "City Line",
    "state": "NY"
  },
  {
    "zip": 11417,
    "centerName": "City Line",
    "state": "NY"
  },
  {
    "zip": 11418,
    "centerName": "Jamaica",
    "state": "NY"
  },
  {
    "zip": 11419,
    "centerName": "Jamaica",
    "state": "NY"
  },
  {
    "zip": 11420,
    "centerName": "South Jamaica",
    "state": "NY"
  },
  {
    "zip": 11421,
    "centerName": "City Line",
    "state": "NY"
  },
  {
    "zip": 11422,
    "centerName": "Cambria Heights",
    "state": "NY"
  },
  {
    "zip": 11423,
    "centerName": "Cambria Heights",
    "state": "NY"
  },
  {
    "zip": 11427,
    "centerName": "Cambria Heights",
    "state": "NY"
  },
  {
    "zip": 11428,
    "centerName": "Cambria Heights",
    "state": "NY"
  },
  {
    "zip": 11429,
    "centerName": "Cambria Heights",
    "state": "NY"
  },
  {
    "zip": 11430,
    "centerName": "South Jamaica",
    "state": "NY"
  },
  {
    "zip": 11432,
    "centerName": "Jamaica",
    "state": "NY"
  },
  {
    "zip": 11433,
    "centerName": "South Jamaica",
    "state": "NY"
  },
  {
    "zip": 11434,
    "centerName": "South Jamaica",
    "state": "NY"
  },
  {
    "zip": 11435,
    "centerName": "Jamaica",
    "state": "NY"
  },
  {
    "zip": 11436,
    "centerName": "South Jamaica",
    "state": "NY"
  },
  {
    "zip": 11439,
    "centerName": "Jamaica",
    "state": "NY"
  },
  {
    "zip": 11510,
    "centerName": "Freeport",
    "state": "NY"
  },
  {
    "zip": 11516,
    "centerName": "Far Rockaway",
    "state": "NY"
  },
  {
    "zip": 11518,
    "centerName": "Freeport",
    "state": "NY"
  },
  {
    "zip": 11520,
    "centerName": "Freeport",
    "state": "NY"
  },
  {
    "zip": 11557,
    "centerName": "Freeport",
    "state": "NY"
  },
  {
    "zip": 11558,
    "centerName": "Freeport",
    "state": "NY"
  },
  {
    "zip": 11559,
    "centerName": "Far Rockaway",
    "state": "NY"
  },
  {
    "zip": 11561,
    "centerName": "Freeport",
    "state": "NY"
  },
  {
    "zip": 11563,
    "centerName": "Freeport",
    "state": "NY"
  },
  {
    "zip": 11565,
    "centerName": "Freeport",
    "state": "NY"
  },
  {
    "zip": 11566,
    "centerName": "Freeport",
    "state": "NY"
  },
  {
    "zip": 11570,
    "centerName": "Freeport",
    "state": "NY"
  },
  {
    "zip": 11572,
    "centerName": "Freeport",
    "state": "NY"
  },
  {
    "zip": 11575,
    "centerName": "Freeport",
    "state": "NY"
  },
  {
    "zip": 11581,
    "centerName": "Freeport",
    "state": "NY"
  },
  {
    "zip": 11691,
    "centerName": "Far Rockaway",
    "state": "NY"
  },
  {
    "zip": 11692,
    "centerName": "Far Rockaway",
    "state": "NY"
  },
  {
    "zip": 11693,
    "centerName": "Far Rockaway",
    "state": "NY"
  },
  {
    "zip": 11694,
    "centerName": "Far Rockaway",
    "state": "NY"
  },
  {
    "zip": 11710,
    "centerName": "Freeport",
    "state": "NY"
  },
  {
    "zip": 11783,
    "centerName": "Freeport",
    "state": "NY"
  },
  {
    "zip": 11793,
    "centerName": "Freeport",
    "state": "NY"
  },
  {
    "zip": 17505,
    "centerName": "Lancaster",
    "state": "PA"
  },
  {
    "zip": 17508,
    "centerName": "Lancaster",
    "state": "PA"
  },
  {
    "zip": 17520,
    "centerName": "Lancaster",
    "state": "PA"
  },
  {
    "zip": 17522,
    "centerName": "Lancaster",
    "state": "PA"
  },
  {
    "zip": 17538,
    "centerName": "Lancaster",
    "state": "PA"
  },
  {
    "zip": 17540,
    "centerName": "Lancaster",
    "state": "PA"
  },
  {
    "zip": 17543,
    "centerName": "Lancaster",
    "state": "PA"
  },
  {
    "zip": 17545,
    "centerName": "Lancaster",
    "state": "PA"
  },
  {
    "zip": 17554,
    "centerName": "Lancaster",
    "state": "PA"
  },
  {
    "zip": 17572,
    "centerName": "Lancaster",
    "state": "PA"
  },
  {
    "zip": 17576,
    "centerName": "Lancaster",
    "state": "PA"
  },
  {
    "zip": 17579,
    "centerName": "Lancaster",
    "state": "PA"
  },
  {
    "zip": 17584,
    "centerName": "Lancaster",
    "state": "PA"
  },
  {
    "zip": 17601,
    "centerName": "Lancaster",
    "state": "PA"
  },
  {
    "zip": 17602,
    "centerName": "Lancaster",
    "state": "PA"
  },
  {
    "zip": 17603,
    "centerName": "Lancaster",
    "state": "PA"
  },
  {
    "zip": 18015,
    "centerName": "Allentown",
    "state": "PA"
  },
  {
    "zip": 18031,
    "centerName": "Allentown",
    "state": "PA"
  },
  {
    "zip": 18034,
    "centerName": "Allentown",
    "state": "PA"
  },
  {
    "zip": 18036,
    "centerName": "Allentown",
    "state": "PA"
  },
  {
    "zip": 18049,
    "centerName": "Allentown",
    "state": "PA"
  },
  {
    "zip": 18055,
    "centerName": "Allentown",
    "state": "PA"
  },
  {
    "zip": 18062,
    "centerName": "Allentown",
    "state": "PA"
  },
  {
    "zip": 18069,
    "centerName": "Allentown",
    "state": "PA"
  },
  {
    "zip": 18087,
    "centerName": "Allentown",
    "state": "PA"
  },
  {
    "zip": 18101,
    "centerName": "Allentown",
    "state": "PA"
  },
  {
    "zip": 18102,
    "centerName": "Allentown",
    "state": "PA"
  },
  {
    "zip": 18103,
    "centerName": "Allentown",
    "state": "PA"
  },
  {
    "zip": 18104,
    "centerName": "Allentown",
    "state": "PA"
  },
  {
    "zip": 18106,
    "centerName": "Allentown",
    "state": "PA"
  },
  {
    "zip": 19004,
    "centerName": "Parkside",
    "state": "PA"
  },
  {
    "zip": 19012,
    "centerName": "Fern Rock",
    "state": "PA"
  },
  {
    "zip": 19027,
    "centerName": "Cheltenham",
    "state": "PA"
  },
  {
    "zip": 19038,
    "centerName": "Cheltenham",
    "state": "PA"
  },
  {
    "zip": 19082,
    "centerName": "Parkside",
    "state": "PA"
  },
  {
    "zip": 19095,
    "centerName": "Cheltenham",
    "state": "PA"
  },
  {
    "zip": 19096,
    "centerName": "Parkside",
    "state": "PA"
  },
  {
    "zip": 19103,
    "centerName": "South Philly",
    "state": "PA"
  },
  {
    "zip": 19104,
    "centerName": "University City",
    "state": "PA"
  },
  {
    "zip": 19106,
    "centerName": "South Philly",
    "state": "PA"
  },
  {
    "zip": 19111,
    "centerName": "Roosevelt",
    "state": "PA"
  },
  {
    "zip": 19115,
    "centerName": "Roosevelt",
    "state": "PA"
  },
  {
    "zip": 19118,
    "centerName": "Cheltenham",
    "state": "PA"
  },
  {
    "zip": 19119,
    "centerName": "Germantown",
    "state": "PA"
  },
  {
    "zip": 19120,
    "centerName": "Fern Rock",
    "state": "PA"
  },
  {
    "zip": 19121,
    "centerName": "Strawberry Mansion",
    "state": "PA"
  },
  {
    "zip": 19122,
    "centerName": "Strawberry Mansion",
    "state": "PA"
  },
  {
    "zip": 19123,
    "centerName": "Strawberry Mansion",
    "state": "PA"
  },
  {
    "zip": 19124,
    "centerName": "Aramingo",
    "state": "PA"
  },
  {
    "zip": 19125,
    "centerName": "Aramingo",
    "state": "PA"
  },
  {
    "zip": 19126,
    "centerName": "Fern Rock",
    "state": "PA"
  },
  {
    "zip": 19128,
    "centerName": "Germantown",
    "state": "PA"
  },
  {
    "zip": 19129,
    "centerName": "Germantown",
    "state": "PA"
  },
  {
    "zip": 19130,
    "centerName": "Strawberry Mansion",
    "state": "PA"
  },
  {
    "zip": 19131,
    "centerName": "Parkside",
    "state": "PA"
  },
  {
    "zip": 19132,
    "centerName": "Strawberry Mansion",
    "state": "PA"
  },
  {
    "zip": 19133,
    "centerName": "Strawberry Mansion",
    "state": "PA"
  },
  {
    "zip": 19134,
    "centerName": "Aramingo",
    "state": "PA"
  },
  {
    "zip": 19135,
    "centerName": "Roosevelt",
    "state": "PA"
  },
  {
    "zip": 19136,
    "centerName": "Roosevelt",
    "state": "PA"
  },
  {
    "zip": 19137,
    "centerName": "Aramingo",
    "state": "PA"
  },
  {
    "zip": 19138,
    "centerName": "Cheltenham",
    "state": "PA"
  },
  {
    "zip": 19139,
    "centerName": "Parkside",
    "state": "PA"
  },
  {
    "zip": 19140,
    "centerName": "Strawberry Mansion",
    "state": "PA"
  },
  {
    "zip": 19141,
    "centerName": "Germantown",
    "state": "PA"
  },
  {
    "zip": 19144,
    "centerName": "Germantown",
    "state": "PA"
  },
  {
    "zip": 19145,
    "centerName": "South Philly",
    "state": "PA"
  },
  {
    "zip": 19146,
    "centerName": "South Philly",
    "state": "PA"
  },
  {
    "zip": 19147,
    "centerName": "South Philly",
    "state": "PA"
  },
  {
    "zip": 19148,
    "centerName": "South Philly",
    "state": "PA"
  },
  {
    "zip": 19149,
    "centerName": "Roosevelt",
    "state": "PA"
  },
  {
    "zip": 19150,
    "centerName": "Cheltenham",
    "state": "PA"
  },
  {
    "zip": 19151,
    "centerName": "Parkside",
    "state": "PA"
  },
  {
    "zip": 19152,
    "centerName": "Roosevelt",
    "state": "PA"
  },
  {
    "zip": 19508,
    "centerName": "Reading",
    "state": "PA"
  },
  {
    "zip": 19510,
    "centerName": "Reading",
    "state": "PA"
  },
  {
    "zip": 19522,
    "centerName": "Reading",
    "state": "PA"
  },
  {
    "zip": 19533,
    "centerName": "Reading",
    "state": "PA"
  },
  {
    "zip": 19540,
    "centerName": "Reading",
    "state": "PA"
  },
  {
    "zip": 19547,
    "centerName": "Reading",
    "state": "PA"
  },
  {
    "zip": 19555,
    "centerName": "Reading",
    "state": "PA"
  },
  {
    "zip": 19560,
    "centerName": "Reading",
    "state": "PA"
  },
  {
    "zip": 19601,
    "centerName": "Reading",
    "state": "PA"
  },
  {
    "zip": 19602,
    "centerName": "Reading",
    "state": "PA"
  },
  {
    "zip": 19604,
    "centerName": "Reading",
    "state": "PA"
  },
  {
    "zip": 19605,
    "centerName": "Reading",
    "state": "PA"
  },
  {
    "zip": 19606,
    "centerName": "Reading",
    "state": "PA"
  },
  {
    "zip": 19607,
    "centerName": "Reading",
    "state": "PA"
  },
  {
    "zip": 19608,
    "centerName": "Reading",
    "state": "PA"
  },
  {
    "zip": 19609,
    "centerName": "Reading",
    "state": "PA"
  },
  {
    "zip": 19610,
    "centerName": "Reading",
    "state": "PA"
  },
  {
    "zip": 19611,
    "centerName": "Reading",
    "state": "PA"
  },
  {
    "zip": 23005,
    "centerName": "Chamberlayne",
    "state": "VA"
  },
  {
    "zip": 23059,
    "centerName": "Chamberlayne",
    "state": "VA"
  },
  {
    "zip": 23060,
    "centerName": "Chamberlayne",
    "state": "VA"
  },
  {
    "zip": 23069,
    "centerName": "Chamberlayne",
    "state": "VA"
  },
  {
    "zip": 23111,
    "centerName": "Chamberlayne",
    "state": "VA"
  },
  {
    "zip": 23112,
    "centerName": "Broad Rock",
    "state": "VA"
  },
  {
    "zip": 23113,
    "centerName": "Broad Rock",
    "state": "VA"
  },
  {
    "zip": 23114,
    "centerName": "Broad Rock",
    "state": "VA"
  },
  {
    "zip": 23116,
    "centerName": "Chamberlayne",
    "state": "VA"
  },
  {
    "zip": 23173,
    "centerName": "Chamberlayne",
    "state": "VA"
  },
  {
    "zip": 23219,
    "centerName": "Chamberlayne",
    "state": "VA"
  },
  {
    "zip": 23220,
    "centerName": "Chamberlayne",
    "state": "VA"
  },
  {
    "zip": 23221,
    "centerName": "Chamberlayne",
    "state": "VA"
  },
  {
    "zip": 23222,
    "centerName": "Chamberlayne",
    "state": "VA"
  },
  {
    "zip": 23223,
    "centerName": "Chamberlayne",
    "state": "VA"
  },
  {
    "zip": 23224,
    "centerName": "Broad Rock",
    "state": "VA"
  },
  {
    "zip": 23225,
    "centerName": "Broad Rock",
    "state": "VA"
  },
  {
    "zip": 23226,
    "centerName": "Chamberlayne",
    "state": "VA"
  },
  {
    "zip": 23227,
    "centerName": "Chamberlayne",
    "state": "VA"
  },
  {
    "zip": 23228,
    "centerName": "Chamberlayne",
    "state": "VA"
  },
  {
    "zip": 23229,
    "centerName": "Chamberlayne",
    "state": "VA"
  },
  {
    "zip": 23230,
    "centerName": "Chamberlayne",
    "state": "VA"
  },
  {
    "zip": 23231,
    "centerName": "Broad Rock",
    "state": "VA"
  },
  {
    "zip": 23233,
    "centerName": "Chamberlayne",
    "state": "VA"
  },
  {
    "zip": 23234,
    "centerName": "Broad Rock",
    "state": "VA"
  },
  {
    "zip": 23235,
    "centerName": "Broad Rock",
    "state": "VA"
  },
  {
    "zip": 23236,
    "centerName": "Broad Rock",
    "state": "VA"
  },
  {
    "zip": 23237,
    "centerName": "Broad Rock",
    "state": "VA"
  },
  {
    "zip": 23238,
    "centerName": "Chamberlayne",
    "state": "VA"
  },
  {
    "zip": 23284,
    "centerName": "Chamberlayne",
    "state": "VA"
  },
  {
    "zip": 23294,
    "centerName": "Chamberlayne",
    "state": "VA"
  },
  {
    "zip": 23298,
    "centerName": "Chamberlayne",
    "state": "VA"
  },
  {
    "zip": 23831,
    "centerName": "Broad Rock",
    "state": "VA"
  },
  {
    "zip": 23832,
    "centerName": "Broad Rock",
    "state": "VA"
  },
  {
    "zip": 27012,
    "centerName": "Winston-Salem",
    "state": "NC"
  },
  {
    "zip": 27051,
    "centerName": "Winston-Salem",
    "state": "NC"
  },
  {
    "zip": 27101,
    "centerName": "Winston-Salem",
    "state": "NC"
  },
  {
    "zip": 27103,
    "centerName": "Winston-Salem",
    "state": "NC"
  },
  {
    "zip": 27104,
    "centerName": "Winston-Salem",
    "state": "NC"
  },
  {
    "zip": 27105,
    "centerName": "Winston-Salem",
    "state": "NC"
  },
  {
    "zip": 27106,
    "centerName": "Winston-Salem",
    "state": "NC"
  },
  {
    "zip": 27107,
    "centerName": "Winston-Salem",
    "state": "NC"
  },
  {
    "zip": 27110,
    "centerName": "Winston-Salem",
    "state": "NC"
  },
  {
    "zip": 27127,
    "centerName": "Winston-Salem",
    "state": "NC"
  },
  {
    "zip": 27235,
    "centerName": "Gate City",
    "state": "NC"
  },
  {
    "zip": 27260,
    "centerName": "High Point",
    "state": "NC"
  },
  {
    "zip": 27262,
    "centerName": "High Point",
    "state": "NC"
  },
  {
    "zip": 27263,
    "centerName": "High Point",
    "state": "NC"
  },
  {
    "zip": 27265,
    "centerName": "High Point",
    "state": "NC"
  },
  {
    "zip": 27282,
    "centerName": "High Point",
    "state": "NC"
  },
  {
    "zip": 27284,
    "centerName": "Winston-Salem",
    "state": "NC"
  },
  {
    "zip": 27295,
    "centerName": "Winston-Salem",
    "state": "NC"
  },
  {
    "zip": 27301,
    "centerName": "Greensboro",
    "state": "NC"
  },
  {
    "zip": 27313,
    "centerName": "Gate City",
    "state": "NC"
  },
  {
    "zip": 27360,
    "centerName": "High Point",
    "state": "NC"
  },
  {
    "zip": 27370,
    "centerName": "High Point",
    "state": "NC"
  },
  {
    "zip": 27401,
    "centerName": "Greensboro",
    "state": "NC"
  },
  {
    "zip": 27403,
    "centerName": "Greensboro",
    "state": "NC"
  },
  {
    "zip": 27405,
    "centerName": "Greensboro",
    "state": "NC"
  },
  {
    "zip": 27406,
    "centerName": "Greensboro",
    "state": "NC"
  },
  {
    "zip": 27407,
    "centerName": "Gate City",
    "state": "NC"
  },
  {
    "zip": 27408,
    "centerName": "Greensboro",
    "state": "NC"
  },
  {
    "zip": 27409,
    "centerName": "Gate City",
    "state": "NC"
  },
  {
    "zip": 27410,
    "centerName": "Gate City",
    "state": "NC"
  },
  {
    "zip": 27411,
    "centerName": "Greensboro",
    "state": "NC"
  },
  {
    "zip": 27412,
    "centerName": "Greensboro",
    "state": "NC"
  },
  {
    "zip": 27413,
    "centerName": "Greensboro",
    "state": "NC"
  },
  {
    "zip": 27455,
    "centerName": "Greensboro",
    "state": "NC"
  },
  {
    "zip": 27511,
    "centerName": "Southeast Raleigh",
    "state": "NC"
  },
  {
    "zip": 27518,
    "centerName": "Southeast Raleigh",
    "state": "NC"
  },
  {
    "zip": 27529,
    "centerName": "Southeast Raleigh",
    "state": "NC"
  },
  {
    "zip": 27545,
    "centerName": "Southeast Raleigh",
    "state": "NC"
  },
  {
    "zip": 27587,
    "centerName": "Northeast Raleigh",
    "state": "NC"
  },
  {
    "zip": 27601,
    "centerName": "Southeast Raleigh",
    "state": "NC"
  },
  {
    "zip": 27603,
    "centerName": "Southeast Raleigh",
    "state": "NC"
  },
  {
    "zip": 27604,
    "centerName": "Northeast Raleigh",
    "state": "NC"
  },
  {
    "zip": 27605,
    "centerName": "Southeast Raleigh",
    "state": "NC"
  },
  {
    "zip": 27606,
    "centerName": "Southeast Raleigh",
    "state": "NC"
  },
  {
    "zip": 27607,
    "centerName": "Southeast Raleigh",
    "state": "NC"
  },
  {
    "zip": 27608,
    "centerName": "Southeast Raleigh",
    "state": "NC"
  },
  {
    "zip": 27609,
    "centerName": "Northeast Raleigh",
    "state": "NC"
  },
  {
    "zip": 27610,
    "centerName": "Southeast Raleigh",
    "state": "NC"
  },
  {
    "zip": 27612,
    "centerName": "Northeast Raleigh",
    "state": "NC"
  },
  {
    "zip": 27613,
    "centerName": "Northeast Raleigh",
    "state": "NC"
  },
  {
    "zip": 27614,
    "centerName": "Northeast Raleigh",
    "state": "NC"
  },
  {
    "zip": 27615,
    "centerName": "Northeast Raleigh",
    "state": "NC"
  },
  {
    "zip": 27616,
    "centerName": "Northeast Raleigh",
    "state": "NC"
  },
  {
    "zip": 27695,
    "centerName": "Southeast Raleigh",
    "state": "NC"
  },
  {
    "zip": 28012,
    "centerName": "Enderly Park",
    "state": "NC"
  },
  {
    "zip": 28078,
    "centerName": "Enderly Park",
    "state": "NC"
  },
  {
    "zip": 28104,
    "centerName": "East Charlotte",
    "state": "NC"
  },
  {
    "zip": 28105,
    "centerName": "East Charlotte",
    "state": "NC"
  },
  {
    "zip": 28120,
    "centerName": "Enderly Park",
    "state": "NC"
  },
  {
    "zip": 28134,
    "centerName": "Enderly Park",
    "state": "NC"
  },
  {
    "zip": 28202,
    "centerName": "Enderly Park",
    "state": "NC"
  },
  {
    "zip": 28203,
    "centerName": "Enderly Park",
    "state": "NC"
  },
  {
    "zip": 28204,
    "centerName": "East Charlotte",
    "state": "NC"
  },
  {
    "zip": 28205,
    "centerName": "East Charlotte",
    "state": "NC"
  },
  {
    "zip": 28206,
    "centerName": "Enderly Park",
    "state": "NC"
  },
  {
    "zip": 28208,
    "centerName": "Enderly Park",
    "state": "NC"
  },
  {
    "zip": 28210,
    "centerName": "Enderly Park",
    "state": "NC"
  },
  {
    "zip": 28212,
    "centerName": "East Charlotte",
    "state": "NC"
  },
  {
    "zip": 28213,
    "centerName": "East Charlotte",
    "state": "NC"
  },
  {
    "zip": 28214,
    "centerName": "Enderly Park",
    "state": "NC"
  },
  {
    "zip": 28215,
    "centerName": "East Charlotte",
    "state": "NC"
  },
  {
    "zip": 28216,
    "centerName": "Enderly Park",
    "state": "NC"
  },
  {
    "zip": 28217,
    "centerName": "Enderly Park",
    "state": "NC"
  },
  {
    "zip": 28227,
    "centerName": "East Charlotte",
    "state": "NC"
  },
  {
    "zip": 28262,
    "centerName": "East Charlotte",
    "state": "NC"
  },
  {
    "zip": 28269,
    "centerName": "Enderly Park",
    "state": "NC"
  },
  {
    "zip": 28273,
    "centerName": "Enderly Park",
    "state": "NC"
  },
  {
    "zip": 28278,
    "centerName": "Enderly Park",
    "state": "NC"
  },
  {
    "zip": 29301,
    "centerName": "Spartanburg",
    "state": "SC"
  },
  {
    "zip": 29302,
    "centerName": "Spartanburg",
    "state": "SC"
  },
  {
    "zip": 29303,
    "centerName": "Spartanburg",
    "state": "SC"
  },
  {
    "zip": 29306,
    "centerName": "Spartanburg",
    "state": "SC"
  },
  {
    "zip": 29307,
    "centerName": "Spartanburg",
    "state": "SC"
  },
  {
    "zip": 29316,
    "centerName": "Spartanburg",
    "state": "SC"
  },
  {
    "zip": 29320,
    "centerName": "Spartanburg",
    "state": "SC"
  },
  {
    "zip": 29346,
    "centerName": "Spartanburg",
    "state": "SC"
  },
  {
    "zip": 29369,
    "centerName": "Spartanburg",
    "state": "SC"
  },
  {
    "zip": 29376,
    "centerName": "Spartanburg",
    "state": "SC"
  },
  {
    "zip": 29378,
    "centerName": "Spartanburg",
    "state": "SC"
  },
  {
    "zip": 29385,
    "centerName": "Spartanburg",
    "state": "SC"
  },
  {
    "zip": 29601,
    "centerName": "Greenville",
    "state": "SC"
  },
  {
    "zip": 29605,
    "centerName": "Greenville",
    "state": "SC"
  },
  {
    "zip": 29607,
    "centerName": "Greenville",
    "state": "SC"
  },
  {
    "zip": 29609,
    "centerName": "Greenville",
    "state": "SC"
  },
  {
    "zip": 29611,
    "centerName": "Greenville",
    "state": "SC"
  },
  {
    "zip": 29613,
    "centerName": "Greenville",
    "state": "SC"
  },
  {
    "zip": 29615,
    "centerName": "Greenville",
    "state": "SC"
  },
  {
    "zip": 29617,
    "centerName": "Greenville",
    "state": "SC"
  },
  {
    "zip": 29640,
    "centerName": "Greenville",
    "state": "SC"
  },
  {
    "zip": 29642,
    "centerName": "Greenville",
    "state": "SC"
  },
  {
    "zip": 29673,
    "centerName": "Greenville",
    "state": "SC"
  },
  {
    "zip": 29687,
    "centerName": "Greenville",
    "state": "SC"
  },
  {
    "zip": 30002,
    "centerName": "South Dekalb",
    "state": "GA"
  },
  {
    "zip": 30008,
    "centerName": "Marietta",
    "state": "GA"
  },
  {
    "zip": 30030,
    "centerName": "South Dekalb",
    "state": "GA"
  },
  {
    "zip": 30032,
    "centerName": "South Dekalb",
    "state": "GA"
  },
  {
    "zip": 30034,
    "centerName": "South Dekalb",
    "state": "GA"
  },
  {
    "zip": 30035,
    "centerName": "South Dekalb",
    "state": "GA"
  },
  {
    "zip": 30038,
    "centerName": "South Dekalb",
    "state": "GA"
  },
  {
    "zip": 30060,
    "centerName": "Marietta",
    "state": "GA"
  },
  {
    "zip": 30062,
    "centerName": "Marietta",
    "state": "GA"
  },
  {
    "zip": 30064,
    "centerName": "Marietta",
    "state": "GA"
  },
  {
    "zip": 30066,
    "centerName": "Marietta",
    "state": "GA"
  },
  {
    "zip": 30067,
    "centerName": "Marietta",
    "state": "GA"
  },
  {
    "zip": 30068,
    "centerName": "Marietta",
    "state": "GA"
  },
  {
    "zip": 30069,
    "centerName": "Marietta",
    "state": "GA"
  },
  {
    "zip": 30080,
    "centerName": "Marietta",
    "state": "GA"
  },
  {
    "zip": 30082,
    "centerName": "Marietta",
    "state": "GA"
  },
  {
    "zip": 30088,
    "centerName": "South Dekalb",
    "state": "GA"
  },
  {
    "zip": 30106,
    "centerName": "Marietta",
    "state": "GA"
  },
  {
    "zip": 30126,
    "centerName": "West End",
    "state": "GA"
  },
  {
    "zip": 30127,
    "centerName": "Marietta",
    "state": "GA"
  },
  {
    "zip": 30144,
    "centerName": "Marietta",
    "state": "GA"
  },
  {
    "zip": 30152,
    "centerName": "Marietta",
    "state": "GA"
  },
  {
    "zip": 30168,
    "centerName": "West End",
    "state": "GA"
  },
  {
    "zip": 30213,
    "centerName": "Riverdale",
    "state": "GA"
  },
  {
    "zip": 30214,
    "centerName": "Riverdale",
    "state": "GA"
  },
  {
    "zip": 30215,
    "centerName": "Riverdale",
    "state": "GA"
  },
  {
    "zip": 30228,
    "centerName": "Riverdale",
    "state": "GA"
  },
  {
    "zip": 30236,
    "centerName": "Riverdale",
    "state": "GA"
  },
  {
    "zip": 30238,
    "centerName": "Riverdale",
    "state": "GA"
  },
  {
    "zip": 30260,
    "centerName": "Riverdale",
    "state": "GA"
  },
  {
    "zip": 30272,
    "centerName": "East Point",
    "state": "GA"
  },
  {
    "zip": 30273,
    "centerName": "Riverdale",
    "state": "GA"
  },
  {
    "zip": 30274,
    "centerName": "Riverdale",
    "state": "GA"
  },
  {
    "zip": 30281,
    "centerName": "Riverdale",
    "state": "GA"
  },
  {
    "zip": 30288,
    "centerName": "Moreland",
    "state": "GA"
  },
  {
    "zip": 30291,
    "centerName": "East Point",
    "state": "GA"
  },
  {
    "zip": 30294,
    "centerName": "South Dekalb",
    "state": "GA"
  },
  {
    "zip": 30296,
    "centerName": "Riverdale",
    "state": "GA"
  },
  {
    "zip": 30297,
    "centerName": "Riverdale",
    "state": "GA"
  },
  {
    "zip": 30303,
    "centerName": "West End",
    "state": "GA"
  },
  {
    "zip": 30305,
    "centerName": "West End",
    "state": "GA"
  },
  {
    "zip": 30306,
    "centerName": "Moreland",
    "state": "GA"
  },
  {
    "zip": 30307,
    "centerName": "Moreland",
    "state": "GA"
  },
  {
    "zip": 30308,
    "centerName": "West End",
    "state": "GA"
  },
  {
    "zip": 30309,
    "centerName": "West End",
    "state": "GA"
  },
  {
    "zip": 30310,
    "centerName": "West End",
    "state": "GA"
  },
  {
    "zip": 30311,
    "centerName": "West End",
    "state": "GA"
  },
  {
    "zip": 30312,
    "centerName": "Moreland",
    "state": "GA"
  },
  {
    "zip": 30313,
    "centerName": "West End",
    "state": "GA"
  },
  {
    "zip": 30314,
    "centerName": "West End",
    "state": "GA"
  },
  {
    "zip": 30315,
    "centerName": "Moreland",
    "state": "GA"
  },
  {
    "zip": 30316,
    "centerName": "Moreland",
    "state": "GA"
  },
  {
    "zip": 30317,
    "centerName": "Moreland",
    "state": "GA"
  },
  {
    "zip": 30318,
    "centerName": "West End",
    "state": "GA"
  },
  {
    "zip": 30320,
    "centerName": "East Point",
    "state": "GA"
  },
  {
    "zip": 30327,
    "centerName": "West End",
    "state": "GA"
  },
  {
    "zip": 30328,
    "centerName": "West End",
    "state": "GA"
  },
  {
    "zip": 30331,
    "centerName": "East Point",
    "state": "GA"
  },
  {
    "zip": 30332,
    "centerName": "West End",
    "state": "GA"
  },
  {
    "zip": 30334,
    "centerName": "West End",
    "state": "GA"
  },
  {
    "zip": 30336,
    "centerName": "West End",
    "state": "GA"
  },
  {
    "zip": 30337,
    "centerName": "East Point",
    "state": "GA"
  },
  {
    "zip": 30339,
    "centerName": "West End",
    "state": "GA"
  },
  {
    "zip": 30344,
    "centerName": "East Point",
    "state": "GA"
  },
  {
    "zip": 30349,
    "centerName": "East Point",
    "state": "GA"
  },
  {
    "zip": 30354,
    "centerName": "Moreland",
    "state": "GA"
  },
  {
    "zip": 30363,
    "centerName": "West End",
    "state": "GA"
  },
  {
    "zip": 35020,
    "centerName": "Rickwood Field",
    "state": "AL"
  },
  {
    "zip": 35061,
    "centerName": "Rickwood Field",
    "state": "AL"
  },
  {
    "zip": 35064,
    "centerName": "Rickwood Field",
    "state": "AL"
  },
  {
    "zip": 35068,
    "centerName": "Center Point",
    "state": "AL"
  },
  {
    "zip": 35071,
    "centerName": "Center Point",
    "state": "AL"
  },
  {
    "zip": 35116,
    "centerName": "Center Point",
    "state": "AL"
  },
  {
    "zip": 35117,
    "centerName": "Rickwood Field",
    "state": "AL"
  },
  {
    "zip": 35126,
    "centerName": "Center Point",
    "state": "AL"
  },
  {
    "zip": 35127,
    "centerName": "Rickwood Field",
    "state": "AL"
  },
  {
    "zip": 35173,
    "centerName": "Center Point",
    "state": "AL"
  },
  {
    "zip": 35203,
    "centerName": "Rickwood Field",
    "state": "AL"
  },
  {
    "zip": 35204,
    "centerName": "Rickwood Field",
    "state": "AL"
  },
  {
    "zip": 35205,
    "centerName": "Rickwood Field",
    "state": "AL"
  },
  {
    "zip": 35206,
    "centerName": "Center Point",
    "state": "AL"
  },
  {
    "zip": 35207,
    "centerName": "Rickwood Field",
    "state": "AL"
  },
  {
    "zip": 35208,
    "centerName": "Rickwood Field",
    "state": "AL"
  },
  {
    "zip": 35209,
    "centerName": "Rickwood Field",
    "state": "AL"
  },
  {
    "zip": 35210,
    "centerName": "Center Point",
    "state": "AL"
  },
  {
    "zip": 35211,
    "centerName": "Rickwood Field",
    "state": "AL"
  },
  {
    "zip": 35212,
    "centerName": "Center Point",
    "state": "AL"
  },
  {
    "zip": 35213,
    "centerName": "Rickwood Field",
    "state": "AL"
  },
  {
    "zip": 35214,
    "centerName": "Rickwood Field",
    "state": "AL"
  },
  {
    "zip": 35215,
    "centerName": "Center Point",
    "state": "AL"
  },
  {
    "zip": 35216,
    "centerName": "Rickwood Field",
    "state": "AL"
  },
  {
    "zip": 35217,
    "centerName": "Center Point",
    "state": "AL"
  },
  {
    "zip": 35218,
    "centerName": "Rickwood Field",
    "state": "AL"
  },
  {
    "zip": 35221,
    "centerName": "Rickwood Field",
    "state": "AL"
  },
  {
    "zip": 35222,
    "centerName": "Rickwood Field",
    "state": "AL"
  },
  {
    "zip": 35223,
    "centerName": "Rickwood Field",
    "state": "AL"
  },
  {
    "zip": 35224,
    "centerName": "Rickwood Field",
    "state": "AL"
  },
  {
    "zip": 35226,
    "centerName": "Rickwood Field",
    "state": "AL"
  },
  {
    "zip": 35228,
    "centerName": "Rickwood Field",
    "state": "AL"
  },
  {
    "zip": 35229,
    "centerName": "Rickwood Field",
    "state": "AL"
  },
  {
    "zip": 35233,
    "centerName": "Rickwood Field",
    "state": "AL"
  },
  {
    "zip": 35234,
    "centerName": "Rickwood Field",
    "state": "AL"
  },
  {
    "zip": 35235,
    "centerName": "Center Point",
    "state": "AL"
  },
  {
    "zip": 35254,
    "centerName": "Rickwood Field",
    "state": "AL"
  },
  {
    "zip": 35294,
    "centerName": "Rickwood Field",
    "state": "AL"
  },
  {
    "zip": 36602,
    "centerName": "Mobile",
    "state": "AL"
  },
  {
    "zip": 36603,
    "centerName": "Mobile",
    "state": "AL"
  },
  {
    "zip": 36604,
    "centerName": "Mobile",
    "state": "AL"
  },
  {
    "zip": 36605,
    "centerName": "Mobile",
    "state": "AL"
  },
  {
    "zip": 36606,
    "centerName": "Mobile",
    "state": "AL"
  },
  {
    "zip": 36607,
    "centerName": "Mobile",
    "state": "AL"
  },
  {
    "zip": 36608,
    "centerName": "Mobile",
    "state": "AL"
  },
  {
    "zip": 36609,
    "centerName": "Mobile",
    "state": "AL"
  },
  {
    "zip": 36610,
    "centerName": "Mobile",
    "state": "AL"
  },
  {
    "zip": 36611,
    "centerName": "Mobile",
    "state": "AL"
  },
  {
    "zip": 36612,
    "centerName": "Mobile",
    "state": "AL"
  },
  {
    "zip": 36613,
    "centerName": "Mobile",
    "state": "AL"
  },
  {
    "zip": 36615,
    "centerName": "Mobile",
    "state": "AL"
  },
  {
    "zip": 36617,
    "centerName": "Mobile",
    "state": "AL"
  },
  {
    "zip": 36618,
    "centerName": "Mobile",
    "state": "AL"
  },
  {
    "zip": 36619,
    "centerName": "Mobile",
    "state": "AL"
  },
  {
    "zip": 36688,
    "centerName": "Mobile",
    "state": "AL"
  },
  {
    "zip": 36693,
    "centerName": "Mobile",
    "state": "AL"
  },
  {
    "zip": 36695,
    "centerName": "Mobile",
    "state": "AL"
  },
  {
    "zip": 37721,
    "centerName": "East Knoxville",
    "state": "TN"
  },
  {
    "zip": 37764,
    "centerName": "East Knoxville",
    "state": "TN"
  },
  {
    "zip": 37806,
    "centerName": "East Knoxville",
    "state": "TN"
  },
  {
    "zip": 37849,
    "centerName": "East Knoxville",
    "state": "TN"
  },
  {
    "zip": 37871,
    "centerName": "East Knoxville",
    "state": "TN"
  },
  {
    "zip": 37902,
    "centerName": "East Knoxville",
    "state": "TN"
  },
  {
    "zip": 37909,
    "centerName": "East Knoxville",
    "state": "TN"
  },
  {
    "zip": 37912,
    "centerName": "East Knoxville",
    "state": "TN"
  },
  {
    "zip": 37914,
    "centerName": "East Knoxville",
    "state": "TN"
  },
  {
    "zip": 37915,
    "centerName": "East Knoxville",
    "state": "TN"
  },
  {
    "zip": 37916,
    "centerName": "East Knoxville",
    "state": "TN"
  },
  {
    "zip": 37917,
    "centerName": "East Knoxville",
    "state": "TN"
  },
  {
    "zip": 37918,
    "centerName": "East Knoxville",
    "state": "TN"
  },
  {
    "zip": 37919,
    "centerName": "East Knoxville",
    "state": "TN"
  },
  {
    "zip": 37920,
    "centerName": "East Knoxville",
    "state": "TN"
  },
  {
    "zip": 37921,
    "centerName": "East Knoxville",
    "state": "TN"
  },
  {
    "zip": 37924,
    "centerName": "East Knoxville",
    "state": "TN"
  },
  {
    "zip": 37996,
    "centerName": "East Knoxville",
    "state": "TN"
  },
  {
    "zip": 38002,
    "centerName": "Frayser",
    "state": "TN"
  },
  {
    "zip": 38103,
    "centerName": "Frayser",
    "state": "TN"
  },
  {
    "zip": 38104,
    "centerName": "Frayser",
    "state": "TN"
  },
  {
    "zip": 38105,
    "centerName": "Frayser",
    "state": "TN"
  },
  {
    "zip": 38106,
    "centerName": "Whitehaven",
    "state": "TN"
  },
  {
    "zip": 38107,
    "centerName": "Frayser",
    "state": "TN"
  },
  {
    "zip": 38108,
    "centerName": "Frayser",
    "state": "TN"
  },
  {
    "zip": 38109,
    "centerName": "Whitehaven",
    "state": "TN"
  },
  {
    "zip": 38111,
    "centerName": "Park Ave",
    "state": "TN"
  },
  {
    "zip": 38112,
    "centerName": "Park Ave",
    "state": "TN"
  },
  {
    "zip": 38114,
    "centerName": "Whitehaven",
    "state": "TN"
  },
  {
    "zip": 38115,
    "centerName": "Park Ave",
    "state": "TN"
  },
  {
    "zip": 38116,
    "centerName": "Whitehaven",
    "state": "TN"
  },
  {
    "zip": 38117,
    "centerName": "Park Ave",
    "state": "TN"
  },
  {
    "zip": 38118,
    "centerName": "Park Ave",
    "state": "TN"
  },
  {
    "zip": 38119,
    "centerName": "Park Ave",
    "state": "TN"
  },
  {
    "zip": 38120,
    "centerName": "Park Ave",
    "state": "TN"
  },
  {
    "zip": 38122,
    "centerName": "Park Ave",
    "state": "TN"
  },
  {
    "zip": 38126,
    "centerName": "Frayser",
    "state": "TN"
  },
  {
    "zip": 38127,
    "centerName": "Frayser",
    "state": "TN"
  },
  {
    "zip": 38128,
    "centerName": "Frayser",
    "state": "TN"
  },
  {
    "zip": 38131,
    "centerName": "Whitehaven",
    "state": "TN"
  },
  {
    "zip": 38132,
    "centerName": "Whitehaven",
    "state": "TN"
  },
  {
    "zip": 38134,
    "centerName": "Frayser",
    "state": "TN"
  },
  {
    "zip": 38135,
    "centerName": "Frayser",
    "state": "TN"
  },
  {
    "zip": 38138,
    "centerName": "Park Ave",
    "state": "TN"
  },
  {
    "zip": 38141,
    "centerName": "Park Ave",
    "state": "TN"
  },
  {
    "zip": 38152,
    "centerName": "Park Ave",
    "state": "TN"
  },
  {
    "zip": 39056,
    "centerName": "Jackson West",
    "state": "MS"
  },
  {
    "zip": 39058,
    "centerName": "Jackson West",
    "state": "MS"
  },
  {
    "zip": 39110,
    "centerName": "Jackson North",
    "state": "MS"
  },
  {
    "zip": 39154,
    "centerName": "Jackson West",
    "state": "MS"
  },
  {
    "zip": 39157,
    "centerName": "Jackson North",
    "state": "MS"
  },
  {
    "zip": 39174,
    "centerName": "Jackson North",
    "state": "MS"
  },
  {
    "zip": 39201,
    "centerName": "Jackson West",
    "state": "MS"
  },
  {
    "zip": 39202,
    "centerName": "Jackson North",
    "state": "MS"
  },
  {
    "zip": 39203,
    "centerName": "Jackson West",
    "state": "MS"
  },
  {
    "zip": 39204,
    "centerName": "Jackson West",
    "state": "MS"
  },
  {
    "zip": 39206,
    "centerName": "Jackson North",
    "state": "MS"
  },
  {
    "zip": 39208,
    "centerName": "Jackson West",
    "state": "MS"
  },
  {
    "zip": 39209,
    "centerName": "Jackson North",
    "state": "MS"
  },
  {
    "zip": 39210,
    "centerName": "Jackson North",
    "state": "MS"
  },
  {
    "zip": 39211,
    "centerName": "Jackson North",
    "state": "MS"
  },
  {
    "zip": 39212,
    "centerName": "Jackson West",
    "state": "MS"
  },
  {
    "zip": 39213,
    "centerName": "Jackson North",
    "state": "MS"
  },
  {
    "zip": 39216,
    "centerName": "Jackson North",
    "state": "MS"
  },
  {
    "zip": 39217,
    "centerName": "Jackson West",
    "state": "MS"
  },
  {
    "zip": 39218,
    "centerName": "Jackson West",
    "state": "MS"
  },
  {
    "zip": 39232,
    "centerName": "Jackson West",
    "state": "MS"
  },
  {
    "zip": 39272,
    "centerName": "Jackson West",
    "state": "MS"
  },
  {
    "zip": 40109,
    "centerName": "Edgewood",
    "state": "KY"
  },
  {
    "zip": 40118,
    "centerName": "Edgewood",
    "state": "KY"
  },
  {
    "zip": 40204,
    "centerName": "Edgewood",
    "state": "KY"
  },
  {
    "zip": 40205,
    "centerName": "Edgewood",
    "state": "KY"
  },
  {
    "zip": 40206,
    "centerName": "Edgewood",
    "state": "KY"
  },
  {
    "zip": 40207,
    "centerName": "Edgewood",
    "state": "KY"
  },
  {
    "zip": 40209,
    "centerName": "Edgewood",
    "state": "KY"
  },
  {
    "zip": 40213,
    "centerName": "Edgewood",
    "state": "KY"
  },
  {
    "zip": 40217,
    "centerName": "Edgewood",
    "state": "KY"
  },
  {
    "zip": 40218,
    "centerName": "Edgewood",
    "state": "KY"
  },
  {
    "zip": 40219,
    "centerName": "Edgewood",
    "state": "KY"
  },
  {
    "zip": 40220,
    "centerName": "Edgewood",
    "state": "KY"
  },
  {
    "zip": 40222,
    "centerName": "Jeffersonville",
    "state": "IN"
  },
  {
    "zip": 40228,
    "centerName": "Edgewood",
    "state": "KY"
  },
  {
    "zip": 40229,
    "centerName": "Edgewood",
    "state": "KY"
  },
  {
    "zip": 40291,
    "centerName": "Edgewood",
    "state": "KY"
  },
  {
    "zip": 40299,
    "centerName": "Edgewood",
    "state": "KY"
  },
  {
    "zip": 40361,
    "centerName": "Legends Lane",
    "state": "KY"
  },
  {
    "zip": 40502,
    "centerName": "Legends Lane",
    "state": "KY"
  },
  {
    "zip": 40503,
    "centerName": "Legends Lane",
    "state": "KY"
  },
  {
    "zip": 40504,
    "centerName": "Legends Lane",
    "state": "KY"
  },
  {
    "zip": 40505,
    "centerName": "Legends Lane",
    "state": "KY"
  },
  {
    "zip": 40506,
    "centerName": "Legends Lane",
    "state": "KY"
  },
  {
    "zip": 40507,
    "centerName": "Legends Lane",
    "state": "KY"
  },
  {
    "zip": 40508,
    "centerName": "Legends Lane",
    "state": "KY"
  },
  {
    "zip": 40509,
    "centerName": "Legends Lane",
    "state": "KY"
  },
  {
    "zip": 40510,
    "centerName": "Legends Lane",
    "state": "KY"
  },
  {
    "zip": 40511,
    "centerName": "Legends Lane",
    "state": "KY"
  },
  {
    "zip": 40513,
    "centerName": "Legends Lane",
    "state": "KY"
  },
  {
    "zip": 40515,
    "centerName": "Legends Lane",
    "state": "KY"
  },
  {
    "zip": 40516,
    "centerName": "Legends Lane",
    "state": "KY"
  },
  {
    "zip": 40517,
    "centerName": "Legends Lane",
    "state": "KY"
  },
  {
    "zip": 40526,
    "centerName": "Legends Lane",
    "state": "KY"
  },
  {
    "zip": 42420,
    "centerName": "Riverside",
    "state": "IN"
  },
  {
    "zip": 42451,
    "centerName": "Riverside",
    "state": "IN"
  },
  {
    "zip": 44103,
    "centerName": "Morgana Park",
    "state": "OH"
  },
  {
    "zip": 44104,
    "centerName": "Morgana Park",
    "state": "OH"
  },
  {
    "zip": 44105,
    "centerName": "Morgana Park",
    "state": "OH"
  },
  {
    "zip": 44106,
    "centerName": "Morgana Park",
    "state": "OH"
  },
  {
    "zip": 44108,
    "centerName": "Glenville",
    "state": "OH"
  },
  {
    "zip": 44110,
    "centerName": "Glenville",
    "state": "OH"
  },
  {
    "zip": 44112,
    "centerName": "Glenville",
    "state": "OH"
  },
  {
    "zip": 44114,
    "centerName": "Morgana Park",
    "state": "OH"
  },
  {
    "zip": 44115,
    "centerName": "Morgana Park",
    "state": "OH"
  },
  {
    "zip": 44117,
    "centerName": "Glenville",
    "state": "OH"
  },
  {
    "zip": 44118,
    "centerName": "Glenville",
    "state": "OH"
  },
  {
    "zip": 44119,
    "centerName": "Glenville",
    "state": "OH"
  },
  {
    "zip": 44120,
    "centerName": "Morgana Park",
    "state": "OH"
  },
  {
    "zip": 44121,
    "centerName": "Glenville",
    "state": "OH"
  },
  {
    "zip": 44122,
    "centerName": "Lee Harvard",
    "state": "OH"
  },
  {
    "zip": 44124,
    "centerName": "Lee Harvard",
    "state": "OH"
  },
  {
    "zip": 44125,
    "centerName": "Morgana Park",
    "state": "OH"
  },
  {
    "zip": 44127,
    "centerName": "Morgana Park",
    "state": "OH"
  },
  {
    "zip": 44128,
    "centerName": "Lee Harvard",
    "state": "OH"
  },
  {
    "zip": 44131,
    "centerName": "Morgana Park",
    "state": "OH"
  },
  {
    "zip": 44137,
    "centerName": "Lee Harvard",
    "state": "OH"
  },
  {
    "zip": 44146,
    "centerName": "Lee Harvard",
    "state": "OH"
  },
  {
    "zip": 45202,
    "centerName": "Avondale",
    "state": "OH"
  },
  {
    "zip": 45203,
    "centerName": "Avondale",
    "state": "OH"
  },
  {
    "zip": 45204,
    "centerName": "Westwood",
    "state": "OH"
  },
  {
    "zip": 45205,
    "centerName": "Westwood",
    "state": "OH"
  },
  {
    "zip": 45206,
    "centerName": "Avondale",
    "state": "OH"
  },
  {
    "zip": 45207,
    "centerName": "Avondale",
    "state": "OH"
  },
  {
    "zip": 45208,
    "centerName": "Avondale",
    "state": "OH"
  },
  {
    "zip": 45209,
    "centerName": "Avondale",
    "state": "OH"
  },
  {
    "zip": 45211,
    "centerName": "Westwood",
    "state": "OH"
  },
  {
    "zip": 45212,
    "centerName": "Avondale",
    "state": "OH"
  },
  {
    "zip": 45213,
    "centerName": "Avondale",
    "state": "OH"
  },
  {
    "zip": 45214,
    "centerName": "Westwood",
    "state": "OH"
  },
  {
    "zip": 45215,
    "centerName": "Avondale",
    "state": "OH"
  },
  {
    "zip": 45216,
    "centerName": "Avondale",
    "state": "OH"
  },
  {
    "zip": 45217,
    "centerName": "Avondale",
    "state": "OH"
  },
  {
    "zip": 45219,
    "centerName": "Avondale",
    "state": "OH"
  },
  {
    "zip": 45220,
    "centerName": "Avondale",
    "state": "OH"
  },
  {
    "zip": 45223,
    "centerName": "Westwood",
    "state": "OH"
  },
  {
    "zip": 45224,
    "centerName": "Avondale",
    "state": "OH"
  },
  {
    "zip": 45225,
    "centerName": "Westwood",
    "state": "OH"
  },
  {
    "zip": 45227,
    "centerName": "Avondale",
    "state": "OH"
  },
  {
    "zip": 45229,
    "centerName": "Avondale",
    "state": "OH"
  },
  {
    "zip": 45231,
    "centerName": "Avondale",
    "state": "OH"
  },
  {
    "zip": 45232,
    "centerName": "Avondale",
    "state": "OH"
  },
  {
    "zip": 45233,
    "centerName": "Westwood",
    "state": "OH"
  },
  {
    "zip": 45236,
    "centerName": "Avondale",
    "state": "OH"
  },
  {
    "zip": 45237,
    "centerName": "Avondale",
    "state": "OH"
  },
  {
    "zip": 45238,
    "centerName": "Westwood",
    "state": "OH"
  },
  {
    "zip": 45239,
    "centerName": "Westwood",
    "state": "OH"
  },
  {
    "zip": 45247,
    "centerName": "Westwood",
    "state": "OH"
  },
  {
    "zip": 45248,
    "centerName": "Westwood",
    "state": "OH"
  },
  {
    "zip": 45251,
    "centerName": "Westwood",
    "state": "OH"
  },
  {
    "zip": 45305,
    "centerName": "Walnut Hills",
    "state": "OH"
  },
  {
    "zip": 45309,
    "centerName": "Crown Point",
    "state": "OH"
  },
  {
    "zip": 45315,
    "centerName": "Crown Point",
    "state": "OH"
  },
  {
    "zip": 45322,
    "centerName": "Crown Point",
    "state": "OH"
  },
  {
    "zip": 45324,
    "centerName": "Walnut Hills",
    "state": "OH"
  },
  {
    "zip": 45325,
    "centerName": "Crown Point",
    "state": "OH"
  },
  {
    "zip": 45327,
    "centerName": "Crown Point",
    "state": "OH"
  },
  {
    "zip": 45342,
    "centerName": "Crown Point",
    "state": "OH"
  },
  {
    "zip": 45345,
    "centerName": "Crown Point",
    "state": "OH"
  },
  {
    "zip": 45402,
    "centerName": "Crown Point",
    "state": "OH"
  },
  {
    "zip": 45403,
    "centerName": "Walnut Hills",
    "state": "OH"
  },
  {
    "zip": 45404,
    "centerName": "Walnut Hills",
    "state": "OH"
  },
  {
    "zip": 45405,
    "centerName": "Crown Point",
    "state": "OH"
  },
  {
    "zip": 45406,
    "centerName": "Crown Point",
    "state": "OH"
  },
  {
    "zip": 45409,
    "centerName": "Walnut Hills",
    "state": "OH"
  },
  {
    "zip": 45410,
    "centerName": "Walnut Hills",
    "state": "OH"
  },
  {
    "zip": 45414,
    "centerName": "Walnut Hills",
    "state": "OH"
  },
  {
    "zip": 45415,
    "centerName": "Crown Point",
    "state": "OH"
  },
  {
    "zip": 45416,
    "centerName": "Crown Point",
    "state": "OH"
  },
  {
    "zip": 45417,
    "centerName": "Crown Point",
    "state": "OH"
  },
  {
    "zip": 45419,
    "centerName": "Walnut Hills",
    "state": "OH"
  },
  {
    "zip": 45420,
    "centerName": "Walnut Hills",
    "state": "OH"
  },
  {
    "zip": 45424,
    "centerName": "Walnut Hills",
    "state": "OH"
  },
  {
    "zip": 45426,
    "centerName": "Crown Point",
    "state": "OH"
  },
  {
    "zip": 45429,
    "centerName": "Walnut Hills",
    "state": "OH"
  },
  {
    "zip": 45430,
    "centerName": "Walnut Hills",
    "state": "OH"
  },
  {
    "zip": 45431,
    "centerName": "Walnut Hills",
    "state": "OH"
  },
  {
    "zip": 45432,
    "centerName": "Walnut Hills",
    "state": "OH"
  },
  {
    "zip": 45433,
    "centerName": "Walnut Hills",
    "state": "OH"
  },
  {
    "zip": 45434,
    "centerName": "Walnut Hills",
    "state": "OH"
  },
  {
    "zip": 45439,
    "centerName": "Walnut Hills",
    "state": "OH"
  },
  {
    "zip": 45440,
    "centerName": "Walnut Hills",
    "state": "OH"
  },
  {
    "zip": 45449,
    "centerName": "Crown Point",
    "state": "OH"
  },
  {
    "zip": 45459,
    "centerName": "Walnut Hills",
    "state": "OH"
  },
  {
    "zip": 45469,
    "centerName": "Walnut Hills",
    "state": "OH"
  },
  {
    "zip": 46032,
    "centerName": "Glendale",
    "state": "IN"
  },
  {
    "zip": 46055,
    "centerName": "Irvington",
    "state": "IN"
  },
  {
    "zip": 46077,
    "centerName": "Glendale",
    "state": "IN"
  },
  {
    "zip": 46106,
    "centerName": "University Heights",
    "state": "IN"
  },
  {
    "zip": 46107,
    "centerName": "University Heights",
    "state": "IN"
  },
  {
    "zip": 46112,
    "centerName": "Speedway",
    "state": "IN"
  },
  {
    "zip": 46123,
    "centerName": "Speedway",
    "state": "IN"
  },
  {
    "zip": 46131,
    "centerName": "University Heights",
    "state": "IN"
  },
  {
    "zip": 46140,
    "centerName": "Irvington",
    "state": "IN"
  },
  {
    "zip": 46142,
    "centerName": "University Heights",
    "state": "IN"
  },
  {
    "zip": 46143,
    "centerName": "University Heights",
    "state": "IN"
  },
  {
    "zip": 46163,
    "centerName": "Irvington",
    "state": "IN"
  },
  {
    "zip": 46168,
    "centerName": "Speedway",
    "state": "IN"
  },
  {
    "zip": 46184,
    "centerName": "University Heights",
    "state": "IN"
  },
  {
    "zip": 46201,
    "centerName": "Irvington",
    "state": "IN"
  },
  {
    "zip": 46202,
    "centerName": "Speedway",
    "state": "IN"
  },
  {
    "zip": 46203,
    "centerName": "Irvington",
    "state": "IN"
  },
  {
    "zip": 46204,
    "centerName": "Speedway",
    "state": "IN"
  },
  {
    "zip": 46205,
    "centerName": "Glendale",
    "state": "IN"
  },
  {
    "zip": 46208,
    "centerName": "Glendale",
    "state": "IN"
  },
  {
    "zip": 46214,
    "centerName": "Speedway",
    "state": "IN"
  },
  {
    "zip": 46216,
    "centerName": "Glendale",
    "state": "IN"
  },
  {
    "zip": 46217,
    "centerName": "University Heights",
    "state": "IN"
  },
  {
    "zip": 46218,
    "centerName": "Irvington",
    "state": "IN"
  },
  {
    "zip": 46219,
    "centerName": "Irvington",
    "state": "IN"
  },
  {
    "zip": 46220,
    "centerName": "Glendale",
    "state": "IN"
  },
  {
    "zip": 46221,
    "centerName": "University Heights",
    "state": "IN"
  },
  {
    "zip": 46222,
    "centerName": "Speedway",
    "state": "IN"
  },
  {
    "zip": 46224,
    "centerName": "Speedway",
    "state": "IN"
  },
  {
    "zip": 46225,
    "centerName": "University Heights",
    "state": "IN"
  },
  {
    "zip": 46226,
    "centerName": "Glendale",
    "state": "IN"
  },
  {
    "zip": 46227,
    "centerName": "University Heights",
    "state": "IN"
  },
  {
    "zip": 46228,
    "centerName": "Glendale",
    "state": "IN"
  },
  {
    "zip": 46229,
    "centerName": "Irvington",
    "state": "IN"
  },
  {
    "zip": 46231,
    "centerName": "Speedway",
    "state": "IN"
  },
  {
    "zip": 46234,
    "centerName": "Speedway",
    "state": "IN"
  },
  {
    "zip": 46235,
    "centerName": "Irvington",
    "state": "IN"
  },
  {
    "zip": 46236,
    "centerName": "Glendale",
    "state": "IN"
  },
  {
    "zip": 46237,
    "centerName": "University Heights",
    "state": "IN"
  },
  {
    "zip": 46239,
    "centerName": "Irvington",
    "state": "IN"
  },
  {
    "zip": 46240,
    "centerName": "Glendale",
    "state": "IN"
  },
  {
    "zip": 46241,
    "centerName": "Speedway",
    "state": "IN"
  },
  {
    "zip": 46250,
    "centerName": "Glendale",
    "state": "IN"
  },
  {
    "zip": 46254,
    "centerName": "Speedway",
    "state": "IN"
  },
  {
    "zip": 46256,
    "centerName": "Glendale",
    "state": "IN"
  },
  {
    "zip": 46259,
    "centerName": "University Heights",
    "state": "IN"
  },
  {
    "zip": 46260,
    "centerName": "Glendale",
    "state": "IN"
  },
  {
    "zip": 46268,
    "centerName": "Glendale",
    "state": "IN"
  },
  {
    "zip": 46278,
    "centerName": "Glendale",
    "state": "IN"
  },
  {
    "zip": 46280,
    "centerName": "Glendale",
    "state": "IN"
  },
  {
    "zip": 46290,
    "centerName": "Glendale",
    "state": "IN"
  },
  {
    "zip": 46304,
    "centerName": "Midtown",
    "state": "IN"
  },
  {
    "zip": 46307,
    "centerName": "Gary",
    "state": "IN"
  },
  {
    "zip": 46311,
    "centerName": "Gary",
    "state": "IN"
  },
  {
    "zip": 46319,
    "centerName": "Gary",
    "state": "IN"
  },
  {
    "zip": 46342,
    "centerName": "Gary",
    "state": "IN"
  },
  {
    "zip": 46368,
    "centerName": "Gary",
    "state": "IN"
  },
  {
    "zip": 46373,
    "centerName": "Gary",
    "state": "IN"
  },
  {
    "zip": 46375,
    "centerName": "Gary",
    "state": "IN"
  },
  {
    "zip": 46385,
    "centerName": "Gary",
    "state": "IN"
  },
  {
    "zip": 46402,
    "centerName": "Gary",
    "state": "IN"
  },
  {
    "zip": 46403,
    "centerName": "Gary",
    "state": "IN"
  },
  {
    "zip": 46404,
    "centerName": "Gary",
    "state": "IN"
  },
  {
    "zip": 46405,
    "centerName": "Gary",
    "state": "IN"
  },
  {
    "zip": 46406,
    "centerName": "Gary",
    "state": "IN"
  },
  {
    "zip": 46407,
    "centerName": "Gary",
    "state": "IN"
  },
  {
    "zip": 46408,
    "centerName": "Gary",
    "state": "IN"
  },
  {
    "zip": 46409,
    "centerName": "Gary",
    "state": "IN"
  },
  {
    "zip": 46410,
    "centerName": "Gary",
    "state": "IN"
  },
  {
    "zip": 46530,
    "centerName": "Lasalle Park",
    "state": "IN"
  },
  {
    "zip": 46544,
    "centerName": "Lasalle Park",
    "state": "IN"
  },
  {
    "zip": 46545,
    "centerName": "Lasalle Park",
    "state": "IN"
  },
  {
    "zip": 46554,
    "centerName": "Lasalle Park",
    "state": "IN"
  },
  {
    "zip": 46556,
    "centerName": "Lasalle Park",
    "state": "IN"
  },
  {
    "zip": 46601,
    "centerName": "Lasalle Park",
    "state": "IN"
  },
  {
    "zip": 46613,
    "centerName": "Lasalle Park",
    "state": "IN"
  },
  {
    "zip": 46614,
    "centerName": "Lasalle Park",
    "state": "IN"
  },
  {
    "zip": 46615,
    "centerName": "Lasalle Park",
    "state": "IN"
  },
  {
    "zip": 46616,
    "centerName": "Lasalle Park",
    "state": "IN"
  },
  {
    "zip": 46617,
    "centerName": "Lasalle Park",
    "state": "IN"
  },
  {
    "zip": 46619,
    "centerName": "Lasalle Park",
    "state": "IN"
  },
  {
    "zip": 46628,
    "centerName": "Lasalle Park",
    "state": "IN"
  },
  {
    "zip": 46635,
    "centerName": "Lasalle Park",
    "state": "IN"
  },
  {
    "zip": 46637,
    "centerName": "Lasalle Park",
    "state": "IN"
  },
  {
    "zip": 46741,
    "centerName": "Fort Wayne",
    "state": "IN"
  },
  {
    "zip": 46774,
    "centerName": "Fort Wayne",
    "state": "IN"
  },
  {
    "zip": 46802,
    "centerName": "Fort Wayne",
    "state": "IN"
  },
  {
    "zip": 46803,
    "centerName": "Fort Wayne",
    "state": "IN"
  },
  {
    "zip": 46804,
    "centerName": "Fort Wayne",
    "state": "IN"
  },
  {
    "zip": 46805,
    "centerName": "Fort Wayne",
    "state": "IN"
  },
  {
    "zip": 46806,
    "centerName": "Fort Wayne",
    "state": "IN"
  },
  {
    "zip": 46807,
    "centerName": "Fort Wayne",
    "state": "IN"
  },
  {
    "zip": 46808,
    "centerName": "Fort Wayne",
    "state": "IN"
  },
  {
    "zip": 46809,
    "centerName": "Fort Wayne",
    "state": "IN"
  },
  {
    "zip": 46814,
    "centerName": "Fort Wayne",
    "state": "IN"
  },
  {
    "zip": 46815,
    "centerName": "Fort Wayne",
    "state": "IN"
  },
  {
    "zip": 46816,
    "centerName": "Fort Wayne",
    "state": "IN"
  },
  {
    "zip": 46818,
    "centerName": "Fort Wayne",
    "state": "IN"
  },
  {
    "zip": 46819,
    "centerName": "Fort Wayne",
    "state": "IN"
  },
  {
    "zip": 46825,
    "centerName": "Fort Wayne",
    "state": "IN"
  },
  {
    "zip": 46835,
    "centerName": "Fort Wayne",
    "state": "IN"
  },
  {
    "zip": 46845,
    "centerName": "Fort Wayne",
    "state": "IN"
  },
  {
    "zip": 47111,
    "centerName": "Jeffersonville",
    "state": "IN"
  },
  {
    "zip": 47129,
    "centerName": "Jeffersonville",
    "state": "IN"
  },
  {
    "zip": 47130,
    "centerName": "Jeffersonville",
    "state": "IN"
  },
  {
    "zip": 47150,
    "centerName": "Jeffersonville",
    "state": "IN"
  },
  {
    "zip": 47172,
    "centerName": "Jeffersonville",
    "state": "IN"
  },
  {
    "zip": 47630,
    "centerName": "Riverside",
    "state": "IN"
  },
  {
    "zip": 47708,
    "centerName": "Riverside",
    "state": "IN"
  },
  {
    "zip": 47710,
    "centerName": "Riverside",
    "state": "IN"
  },
  {
    "zip": 47711,
    "centerName": "Riverside",
    "state": "IN"
  },
  {
    "zip": 47712,
    "centerName": "Riverside",
    "state": "IN"
  },
  {
    "zip": 47713,
    "centerName": "Riverside",
    "state": "IN"
  },
  {
    "zip": 47714,
    "centerName": "Riverside",
    "state": "IN"
  },
  {
    "zip": 47715,
    "centerName": "Riverside",
    "state": "IN"
  },
  {
    "zip": 47720,
    "centerName": "Riverside",
    "state": "IN"
  },
  {
    "zip": 47722,
    "centerName": "Riverside",
    "state": "IN"
  },
  {
    "zip": 47725,
    "centerName": "Riverside",
    "state": "IN"
  },
  {
    "zip": 48015,
    "centerName": "Hazel Park",
    "state": "MI"
  },
  {
    "zip": 48021,
    "centerName": "Eastgate",
    "state": "MI"
  },
  {
    "zip": 48025,
    "centerName": "Hazel Park",
    "state": "MI"
  },
  {
    "zip": 48026,
    "centerName": "Eastgate",
    "state": "MI"
  },
  {
    "zip": 48030,
    "centerName": "Hazel Park",
    "state": "MI"
  },
  {
    "zip": 48035,
    "centerName": "Eastgate",
    "state": "MI"
  },
  {
    "zip": 48066,
    "centerName": "Eastgate",
    "state": "MI"
  },
  {
    "zip": 48067,
    "centerName": "Hazel Park",
    "state": "MI"
  },
  {
    "zip": 48069,
    "centerName": "Hazel Park",
    "state": "MI"
  },
  {
    "zip": 48070,
    "centerName": "Hazel Park",
    "state": "MI"
  },
  {
    "zip": 48071,
    "centerName": "Hazel Park",
    "state": "MI"
  },
  {
    "zip": 48072,
    "centerName": "Hazel Park",
    "state": "MI"
  },
  {
    "zip": 48073,
    "centerName": "Hazel Park",
    "state": "MI"
  },
  {
    "zip": 48076,
    "centerName": "Hazel Park",
    "state": "MI"
  },
  {
    "zip": 48080,
    "centerName": "Eastgate",
    "state": "MI"
  },
  {
    "zip": 48081,
    "centerName": "Eastgate",
    "state": "MI"
  },
  {
    "zip": 48082,
    "centerName": "Eastgate",
    "state": "MI"
  },
  {
    "zip": 48083,
    "centerName": "Hazel Park",
    "state": "MI"
  },
  {
    "zip": 48088,
    "centerName": "Eastgate",
    "state": "MI"
  },
  {
    "zip": 48089,
    "centerName": "Eastgate",
    "state": "MI"
  },
  {
    "zip": 48091,
    "centerName": "Hazel Park",
    "state": "MI"
  },
  {
    "zip": 48092,
    "centerName": "Hazel Park",
    "state": "MI"
  },
  {
    "zip": 48093,
    "centerName": "Eastgate",
    "state": "MI"
  },
  {
    "zip": 48098,
    "centerName": "Pontiac",
    "state": "MI"
  },
  {
    "zip": 48101,
    "centerName": "Southgate",
    "state": "MI"
  },
  {
    "zip": 48111,
    "centerName": "Cherry Hill",
    "state": "MI"
  },
  {
    "zip": 48117,
    "centerName": "Southgate",
    "state": "MI"
  },
  {
    "zip": 48120,
    "centerName": "Cherry Hill",
    "state": "MI"
  },
  {
    "zip": 48122,
    "centerName": "Southgate",
    "state": "MI"
  },
  {
    "zip": 48124,
    "centerName": "Cherry Hill",
    "state": "MI"
  },
  {
    "zip": 48125,
    "centerName": "Cherry Hill",
    "state": "MI"
  },
  {
    "zip": 48126,
    "centerName": "Cherry Hill",
    "state": "MI"
  },
  {
    "zip": 48127,
    "centerName": "Cherry Hill",
    "state": "MI"
  },
  {
    "zip": 48128,
    "centerName": "Cherry Hill",
    "state": "MI"
  },
  {
    "zip": 48134,
    "centerName": "Southgate",
    "state": "MI"
  },
  {
    "zip": 48135,
    "centerName": "Cherry Hill",
    "state": "MI"
  },
  {
    "zip": 48138,
    "centerName": "Southgate",
    "state": "MI"
  },
  {
    "zip": 48141,
    "centerName": "Cherry Hill",
    "state": "MI"
  },
  {
    "zip": 48146,
    "centerName": "Southgate",
    "state": "MI"
  },
  {
    "zip": 48164,
    "centerName": "Southgate",
    "state": "MI"
  },
  {
    "zip": 48173,
    "centerName": "Southgate",
    "state": "MI"
  },
  {
    "zip": 48174,
    "centerName": "Southgate",
    "state": "MI"
  },
  {
    "zip": 48179,
    "centerName": "Southgate",
    "state": "MI"
  },
  {
    "zip": 48180,
    "centerName": "Southgate",
    "state": "MI"
  },
  {
    "zip": 48183,
    "centerName": "Southgate",
    "state": "MI"
  },
  {
    "zip": 48184,
    "centerName": "Cherry Hill",
    "state": "MI"
  },
  {
    "zip": 48185,
    "centerName": "Cherry Hill",
    "state": "MI"
  },
  {
    "zip": 48186,
    "centerName": "Cherry Hill",
    "state": "MI"
  },
  {
    "zip": 48187,
    "centerName": "Cherry Hill",
    "state": "MI"
  },
  {
    "zip": 48188,
    "centerName": "Cherry Hill",
    "state": "MI"
  },
  {
    "zip": 48192,
    "centerName": "Southgate",
    "state": "MI"
  },
  {
    "zip": 48193,
    "centerName": "Southgate",
    "state": "MI"
  },
  {
    "zip": 48195,
    "centerName": "Southgate",
    "state": "MI"
  },
  {
    "zip": 48201,
    "centerName": "Woodward",
    "state": "MI"
  },
  {
    "zip": 48202,
    "centerName": "Woodward",
    "state": "MI"
  },
  {
    "zip": 48203,
    "centerName": "Hazel Park",
    "state": "MI"
  },
  {
    "zip": 48205,
    "centerName": "Jefferson Village",
    "state": "MI"
  },
  {
    "zip": 48206,
    "centerName": "Woodward",
    "state": "MI"
  },
  {
    "zip": 48207,
    "centerName": "Woodward",
    "state": "MI"
  },
  {
    "zip": 48208,
    "centerName": "Woodward",
    "state": "MI"
  },
  {
    "zip": 48209,
    "centerName": "Southgate",
    "state": "MI"
  },
  {
    "zip": 48210,
    "centerName": "Cherry Hill",
    "state": "MI"
  },
  {
    "zip": 48211,
    "centerName": "Woodward",
    "state": "MI"
  },
  {
    "zip": 48212,
    "centerName": "Jefferson Village",
    "state": "MI"
  },
  {
    "zip": 48213,
    "centerName": "Jefferson Village",
    "state": "MI"
  },
  {
    "zip": 48214,
    "centerName": "Jefferson Village",
    "state": "MI"
  },
  {
    "zip": 48215,
    "centerName": "Jefferson Village",
    "state": "MI"
  },
  {
    "zip": 48216,
    "centerName": "Woodward",
    "state": "MI"
  },
  {
    "zip": 48217,
    "centerName": "Southgate",
    "state": "MI"
  },
  {
    "zip": 48218,
    "centerName": "Southgate",
    "state": "MI"
  },
  {
    "zip": 48220,
    "centerName": "Hazel Park",
    "state": "MI"
  },
  {
    "zip": 48224,
    "centerName": "Jefferson Village",
    "state": "MI"
  },
  {
    "zip": 48225,
    "centerName": "Jefferson Village",
    "state": "MI"
  },
  {
    "zip": 48226,
    "centerName": "Woodward",
    "state": "MI"
  },
  {
    "zip": 48229,
    "centerName": "Southgate",
    "state": "MI"
  },
  {
    "zip": 48230,
    "centerName": "Jefferson Village",
    "state": "MI"
  },
  {
    "zip": 48234,
    "centerName": "Jefferson Village",
    "state": "MI"
  },
  {
    "zip": 48236,
    "centerName": "Jefferson Village",
    "state": "MI"
  },
  {
    "zip": 48238,
    "centerName": "Woodward",
    "state": "MI"
  },
  {
    "zip": 48243,
    "centerName": "Woodward",
    "state": "MI"
  },
  {
    "zip": 48302,
    "centerName": "Pontiac",
    "state": "MI"
  },
  {
    "zip": 48304,
    "centerName": "Pontiac",
    "state": "MI"
  },
  {
    "zip": 48309,
    "centerName": "Pontiac",
    "state": "MI"
  },
  {
    "zip": 48310,
    "centerName": "Hazel Park",
    "state": "MI"
  },
  {
    "zip": 48312,
    "centerName": "Eastgate",
    "state": "MI"
  },
  {
    "zip": 48320,
    "centerName": "Pontiac",
    "state": "MI"
  },
  {
    "zip": 48324,
    "centerName": "Pontiac",
    "state": "MI"
  },
  {
    "zip": 48326,
    "centerName": "Pontiac",
    "state": "MI"
  },
  {
    "zip": 48327,
    "centerName": "Pontiac",
    "state": "MI"
  },
  {
    "zip": 48328,
    "centerName": "Pontiac",
    "state": "MI"
  },
  {
    "zip": 48329,
    "centerName": "Pontiac",
    "state": "MI"
  },
  {
    "zip": 48340,
    "centerName": "Pontiac",
    "state": "MI"
  },
  {
    "zip": 48341,
    "centerName": "Pontiac",
    "state": "MI"
  },
  {
    "zip": 48342,
    "centerName": "Pontiac",
    "state": "MI"
  },
  {
    "zip": 48346,
    "centerName": "Pontiac",
    "state": "MI"
  },
  {
    "zip": 48348,
    "centerName": "Pontiac",
    "state": "MI"
  },
  {
    "zip": 48359,
    "centerName": "Pontiac",
    "state": "MI"
  },
  {
    "zip": 48420,
    "centerName": "North Flint",
    "state": "MI"
  },
  {
    "zip": 48423,
    "centerName": "Burton",
    "state": "MI"
  },
  {
    "zip": 48433,
    "centerName": "North Flint",
    "state": "MI"
  },
  {
    "zip": 48439,
    "centerName": "Burton",
    "state": "MI"
  },
  {
    "zip": 48458,
    "centerName": "North Flint",
    "state": "MI"
  },
  {
    "zip": 48473,
    "centerName": "Burton",
    "state": "MI"
  },
  {
    "zip": 48502,
    "centerName": "North Flint",
    "state": "MI"
  },
  {
    "zip": 48503,
    "centerName": "North Flint",
    "state": "MI"
  },
  {
    "zip": 48504,
    "centerName": "North Flint",
    "state": "MI"
  },
  {
    "zip": 48505,
    "centerName": "North Flint",
    "state": "MI"
  },
  {
    "zip": 48506,
    "centerName": "North Flint",
    "state": "MI"
  },
  {
    "zip": 48507,
    "centerName": "Burton",
    "state": "MI"
  },
  {
    "zip": 48509,
    "centerName": "Burton",
    "state": "MI"
  },
  {
    "zip": 48519,
    "centerName": "Burton",
    "state": "MI"
  },
  {
    "zip": 48529,
    "centerName": "Burton",
    "state": "MI"
  },
  {
    "zip": 48532,
    "centerName": "North Flint",
    "state": "MI"
  },
  {
    "zip": 49001,
    "centerName": "Kalamazoo",
    "state": "MI"
  },
  {
    "zip": 49002,
    "centerName": "Kalamazoo",
    "state": "MI"
  },
  {
    "zip": 49004,
    "centerName": "Kalamazoo",
    "state": "MI"
  },
  {
    "zip": 49006,
    "centerName": "Kalamazoo",
    "state": "MI"
  },
  {
    "zip": 49007,
    "centerName": "Kalamazoo",
    "state": "MI"
  },
  {
    "zip": 49008,
    "centerName": "Kalamazoo",
    "state": "MI"
  },
  {
    "zip": 49009,
    "centerName": "Kalamazoo",
    "state": "MI"
  },
  {
    "zip": 49024,
    "centerName": "Kalamazoo",
    "state": "MI"
  },
  {
    "zip": 49048,
    "centerName": "Kalamazoo",
    "state": "MI"
  },
  {
    "zip": 49315,
    "centerName": "Rogers Plaza",
    "state": "MI"
  },
  {
    "zip": 49316,
    "centerName": "Rogers Plaza",
    "state": "MI"
  },
  {
    "zip": 49348,
    "centerName": "Rogers Plaza",
    "state": "MI"
  },
  {
    "zip": 49418,
    "centerName": "Rogers Plaza",
    "state": "MI"
  },
  {
    "zip": 49426,
    "centerName": "Rogers Plaza",
    "state": "MI"
  },
  {
    "zip": 49428,
    "centerName": "Rogers Plaza",
    "state": "MI"
  },
  {
    "zip": 49503,
    "centerName": "Rogers Plaza",
    "state": "MI"
  },
  {
    "zip": 49504,
    "centerName": "Rogers Plaza",
    "state": "MI"
  },
  {
    "zip": 49505,
    "centerName": "Rogers Plaza",
    "state": "MI"
  },
  {
    "zip": 49506,
    "centerName": "Rogers Plaza",
    "state": "MI"
  },
  {
    "zip": 49507,
    "centerName": "Rogers Plaza",
    "state": "MI"
  },
  {
    "zip": 49508,
    "centerName": "Rogers Plaza",
    "state": "MI"
  },
  {
    "zip": 49509,
    "centerName": "Rogers Plaza",
    "state": "MI"
  },
  {
    "zip": 49512,
    "centerName": "Rogers Plaza",
    "state": "MI"
  },
  {
    "zip": 49519,
    "centerName": "Rogers Plaza",
    "state": "MI"
  },
  {
    "zip": 49525,
    "centerName": "Rogers Plaza",
    "state": "MI"
  },
  {
    "zip": 49534,
    "centerName": "Rogers Plaza",
    "state": "MI"
  },
  {
    "zip": 49544,
    "centerName": "Rogers Plaza",
    "state": "MI"
  },
  {
    "zip": 49546,
    "centerName": "Rogers Plaza",
    "state": "MI"
  },
  {
    "zip": 49548,
    "centerName": "Rogers Plaza",
    "state": "MI"
  },
  {
    "zip": 53158,
    "centerName": "Waukegan",
    "state": "IL"
  },
  {
    "zip": 60004,
    "centerName": "Rolling Meadows",
    "state": "IL"
  },
  {
    "zip": 60005,
    "centerName": "Rolling Meadows",
    "state": "IL"
  },
  {
    "zip": 60007,
    "centerName": "Rolling Meadows",
    "state": "IL"
  },
  {
    "zip": 60008,
    "centerName": "Rolling Meadows",
    "state": "IL"
  },
  {
    "zip": 60010,
    "centerName": "Elgin",
    "state": "IL"
  },
  {
    "zip": 60016,
    "centerName": "Rolling Meadows",
    "state": "IL"
  },
  {
    "zip": 60018,
    "centerName": "Rolling Meadows",
    "state": "IL"
  },
  {
    "zip": 60022,
    "centerName": "Skokie",
    "state": "IL"
  },
  {
    "zip": 60025,
    "centerName": "Skokie",
    "state": "IL"
  },
  {
    "zip": 60026,
    "centerName": "Skokie",
    "state": "IL"
  },
  {
    "zip": 60029,
    "centerName": "Skokie",
    "state": "IL"
  },
  {
    "zip": 60031,
    "centerName": "Waukegan",
    "state": "IL"
  },
  {
    "zip": 60035,
    "centerName": "Skokie",
    "state": "IL"
  },
  {
    "zip": 60043,
    "centerName": "Skokie",
    "state": "IL"
  },
  {
    "zip": 60044,
    "centerName": "Waukegan",
    "state": "IL"
  },
  {
    "zip": 60048,
    "centerName": "Waukegan",
    "state": "IL"
  },
  {
    "zip": 60053,
    "centerName": "Skokie",
    "state": "IL"
  },
  {
    "zip": 60056,
    "centerName": "Rolling Meadows",
    "state": "IL"
  },
  {
    "zip": 60062,
    "centerName": "Skokie",
    "state": "IL"
  },
  {
    "zip": 60064,
    "centerName": "Waukegan",
    "state": "IL"
  },
  {
    "zip": 60067,
    "centerName": "Rolling Meadows",
    "state": "IL"
  },
  {
    "zip": 60068,
    "centerName": "Harwood Heights",
    "state": "IL"
  },
  {
    "zip": 60070,
    "centerName": "Rolling Meadows",
    "state": "IL"
  },
  {
    "zip": 60074,
    "centerName": "Rolling Meadows",
    "state": "IL"
  },
  {
    "zip": 60076,
    "centerName": "Skokie",
    "state": "IL"
  },
  {
    "zip": 60077,
    "centerName": "Skokie",
    "state": "IL"
  },
  {
    "zip": 60083,
    "centerName": "Waukegan",
    "state": "IL"
  },
  {
    "zip": 60085,
    "centerName": "Waukegan",
    "state": "IL"
  },
  {
    "zip": 60087,
    "centerName": "Waukegan",
    "state": "IL"
  },
  {
    "zip": 60088,
    "centerName": "Waukegan",
    "state": "IL"
  },
  {
    "zip": 60089,
    "centerName": "Rolling Meadows",
    "state": "IL"
  },
  {
    "zip": 60091,
    "centerName": "Skokie",
    "state": "IL"
  },
  {
    "zip": 60093,
    "centerName": "Skokie",
    "state": "IL"
  },
  {
    "zip": 60096,
    "centerName": "Waukegan",
    "state": "IL"
  },
  {
    "zip": 60099,
    "centerName": "Waukegan",
    "state": "IL"
  },
  {
    "zip": 60102,
    "centerName": "Elgin",
    "state": "IL"
  },
  {
    "zip": 60103,
    "centerName": "Streamwood",
    "state": "IL"
  },
  {
    "zip": 60104,
    "centerName": "Bellwood",
    "state": "IL"
  },
  {
    "zip": 60106,
    "centerName": "Rolling Meadows",
    "state": "IL"
  },
  {
    "zip": 60107,
    "centerName": "Streamwood",
    "state": "IL"
  },
  {
    "zip": 60108,
    "centerName": "Streamwood",
    "state": "IL"
  },
  {
    "zip": 60110,
    "centerName": "Elgin",
    "state": "IL"
  },
  {
    "zip": 60118,
    "centerName": "Elgin",
    "state": "IL"
  },
  {
    "zip": 60120,
    "centerName": "Elgin",
    "state": "IL"
  },
  {
    "zip": 60123,
    "centerName": "Elgin",
    "state": "IL"
  },
  {
    "zip": 60124,
    "centerName": "Elgin",
    "state": "IL"
  },
  {
    "zip": 60130,
    "centerName": "Bellwood",
    "state": "IL"
  },
  {
    "zip": 60131,
    "centerName": "Bellwood",
    "state": "IL"
  },
  {
    "zip": 60133,
    "centerName": "Streamwood",
    "state": "IL"
  },
  {
    "zip": 60134,
    "centerName": "Aurora",
    "state": "IL"
  },
  {
    "zip": 60141,
    "centerName": "Bellwood",
    "state": "IL"
  },
  {
    "zip": 60143,
    "centerName": "Rolling Meadows",
    "state": "IL"
  },
  {
    "zip": 60153,
    "centerName": "Bellwood",
    "state": "IL"
  },
  {
    "zip": 60154,
    "centerName": "Bellwood",
    "state": "IL"
  },
  {
    "zip": 60155,
    "centerName": "Bellwood",
    "state": "IL"
  },
  {
    "zip": 60157,
    "centerName": "Rolling Meadows",
    "state": "IL"
  },
  {
    "zip": 60160,
    "centerName": "Bellwood",
    "state": "IL"
  },
  {
    "zip": 60162,
    "centerName": "Bellwood",
    "state": "IL"
  },
  {
    "zip": 60163,
    "centerName": "Bellwood",
    "state": "IL"
  },
  {
    "zip": 60164,
    "centerName": "Bellwood",
    "state": "IL"
  },
  {
    "zip": 60165,
    "centerName": "Bellwood",
    "state": "IL"
  },
  {
    "zip": 60169,
    "centerName": "Streamwood",
    "state": "IL"
  },
  {
    "zip": 60171,
    "centerName": "Hermosa",
    "state": "IL"
  },
  {
    "zip": 60172,
    "centerName": "Streamwood",
    "state": "IL"
  },
  {
    "zip": 60173,
    "centerName": "Rolling Meadows",
    "state": "IL"
  },
  {
    "zip": 60176,
    "centerName": "Harwood Heights",
    "state": "IL"
  },
  {
    "zip": 60177,
    "centerName": "Elgin",
    "state": "IL"
  },
  {
    "zip": 60191,
    "centerName": "Rolling Meadows",
    "state": "IL"
  },
  {
    "zip": 60192,
    "centerName": "Streamwood",
    "state": "IL"
  },
  {
    "zip": 60193,
    "centerName": "Streamwood",
    "state": "IL"
  },
  {
    "zip": 60194,
    "centerName": "Streamwood",
    "state": "IL"
  },
  {
    "zip": 60195,
    "centerName": "Rolling Meadows",
    "state": "IL"
  },
  {
    "zip": 60196,
    "centerName": "Rolling Meadows",
    "state": "IL"
  },
  {
    "zip": 60203,
    "centerName": "Skokie",
    "state": "IL"
  },
  {
    "zip": 60305,
    "centerName": "Bellwood",
    "state": "IL"
  },
  {
    "zip": 60402,
    "centerName": "Berwyn",
    "state": "IL"
  },
  {
    "zip": 60403,
    "centerName": "Joliet - West",
    "state": "IL"
  },
  {
    "zip": 60404,
    "centerName": "Joliet - West",
    "state": "IL"
  },
  {
    "zip": 60406,
    "centerName": "Blue Island",
    "state": "IL"
  },
  {
    "zip": 60411,
    "centerName": "Lincoln Crossing",
    "state": "IL"
  },
  {
    "zip": 60415,
    "centerName": "Ashburn",
    "state": "IL"
  },
  {
    "zip": 60417,
    "centerName": "Lincoln Crossing",
    "state": "IL"
  },
  {
    "zip": 60418,
    "centerName": "Blue Island",
    "state": "IL"
  },
  {
    "zip": 60419,
    "centerName": "Blue Island",
    "state": "IL"
  },
  {
    "zip": 60422,
    "centerName": "Lincoln Crossing",
    "state": "IL"
  },
  {
    "zip": 60425,
    "centerName": "Lincoln Crossing",
    "state": "IL"
  },
  {
    "zip": 60426,
    "centerName": "Blue Island",
    "state": "IL"
  },
  {
    "zip": 60428,
    "centerName": "Blue Island",
    "state": "IL"
  },
  {
    "zip": 60429,
    "centerName": "Blue Island",
    "state": "IL"
  },
  {
    "zip": 60430,
    "centerName": "Lincoln Crossing",
    "state": "IL"
  },
  {
    "zip": 60431,
    "centerName": "Joliet - West",
    "state": "IL"
  },
  {
    "zip": 60435,
    "centerName": "Joliet - West",
    "state": "IL"
  },
  {
    "zip": 60441,
    "centerName": "Joliet - West",
    "state": "IL"
  },
  {
    "zip": 60443,
    "centerName": "Lincoln Crossing",
    "state": "IL"
  },
  {
    "zip": 60445,
    "centerName": "Blue Island",
    "state": "IL"
  },
  {
    "zip": 60446,
    "centerName": "Joliet - West",
    "state": "IL"
  },
  {
    "zip": 60449,
    "centerName": "Lincoln Crossing",
    "state": "IL"
  },
  {
    "zip": 60452,
    "centerName": "Blue Island",
    "state": "IL"
  },
  {
    "zip": 60453,
    "centerName": "Ashburn",
    "state": "IL"
  },
  {
    "zip": 60455,
    "centerName": "Garfield Ridge",
    "state": "IL"
  },
  {
    "zip": 60456,
    "centerName": "Ashburn",
    "state": "IL"
  },
  {
    "zip": 60457,
    "centerName": "Garfield Ridge",
    "state": "IL"
  },
  {
    "zip": 60458,
    "centerName": "Garfield Ridge",
    "state": "IL"
  },
  {
    "zip": 60459,
    "centerName": "Ashburn",
    "state": "IL"
  },
  {
    "zip": 60461,
    "centerName": "Lincoln Crossing",
    "state": "IL"
  },
  {
    "zip": 60462,
    "centerName": "Blue Island",
    "state": "IL"
  },
  {
    "zip": 60463,
    "centerName": "Blue Island",
    "state": "IL"
  },
  {
    "zip": 60465,
    "centerName": "Garfield Ridge",
    "state": "IL"
  },
  {
    "zip": 60466,
    "centerName": "Lincoln Crossing",
    "state": "IL"
  },
  {
    "zip": 60469,
    "centerName": "Blue Island",
    "state": "IL"
  },
  {
    "zip": 60471,
    "centerName": "Lincoln Crossing",
    "state": "IL"
  },
  {
    "zip": 60472,
    "centerName": "Blue Island",
    "state": "IL"
  },
  {
    "zip": 60475,
    "centerName": "Lincoln Crossing",
    "state": "IL"
  },
  {
    "zip": 60477,
    "centerName": "Blue Island",
    "state": "IL"
  },
  {
    "zip": 60478,
    "centerName": "Lincoln Crossing",
    "state": "IL"
  },
  {
    "zip": 60480,
    "centerName": "Garfield Ridge",
    "state": "IL"
  },
  {
    "zip": 60482,
    "centerName": "Ashburn",
    "state": "IL"
  },
  {
    "zip": 60484,
    "centerName": "Lincoln Crossing",
    "state": "IL"
  },
  {
    "zip": 60501,
    "centerName": "Garfield Ridge",
    "state": "IL"
  },
  {
    "zip": 60502,
    "centerName": "Aurora",
    "state": "IL"
  },
  {
    "zip": 60503,
    "centerName": "Aurora",
    "state": "IL"
  },
  {
    "zip": 60504,
    "centerName": "Aurora",
    "state": "IL"
  },
  {
    "zip": 60505,
    "centerName": "Aurora",
    "state": "IL"
  },
  {
    "zip": 60506,
    "centerName": "Aurora",
    "state": "IL"
  },
  {
    "zip": 60510,
    "centerName": "Aurora",
    "state": "IL"
  },
  {
    "zip": 60512,
    "centerName": "Aurora",
    "state": "IL"
  },
  {
    "zip": 60513,
    "centerName": "Bellwood",
    "state": "IL"
  },
  {
    "zip": 60521,
    "centerName": "Garfield Ridge",
    "state": "IL"
  },
  {
    "zip": 60525,
    "centerName": "Garfield Ridge",
    "state": "IL"
  },
  {
    "zip": 60526,
    "centerName": "Bellwood",
    "state": "IL"
  },
  {
    "zip": 60527,
    "centerName": "Garfield Ridge",
    "state": "IL"
  },
  {
    "zip": 60534,
    "centerName": "Berwyn",
    "state": "IL"
  },
  {
    "zip": 60538,
    "centerName": "Aurora",
    "state": "IL"
  },
  {
    "zip": 60539,
    "centerName": "Aurora",
    "state": "IL"
  },
  {
    "zip": 60542,
    "centerName": "Aurora",
    "state": "IL"
  },
  {
    "zip": 60543,
    "centerName": "Aurora",
    "state": "IL"
  },
  {
    "zip": 60544,
    "centerName": "Joliet - West",
    "state": "IL"
  },
  {
    "zip": 60546,
    "centerName": "Berwyn",
    "state": "IL"
  },
  {
    "zip": 60555,
    "centerName": "Aurora",
    "state": "IL"
  },
  {
    "zip": 60558,
    "centerName": "Garfield Ridge",
    "state": "IL"
  },
  {
    "zip": 60563,
    "centerName": "Aurora",
    "state": "IL"
  },
  {
    "zip": 60564,
    "centerName": "Aurora",
    "state": "IL"
  },
  {
    "zip": 60586,
    "centerName": "Joliet - West",
    "state": "IL"
  },
  {
    "zip": 60608,
    "centerName": "Little Village",
    "state": "IL"
  },
  {
    "zip": 60615,
    "centerName": "Bronzeville",
    "state": "IL"
  },
  {
    "zip": 60616,
    "centerName": "Bronzeville",
    "state": "IL"
  },
  {
    "zip": 60617,
    "centerName": "Avalon Park",
    "state": "IL"
  },
  {
    "zip": 60618,
    "centerName": "Portage Park",
    "state": "IL"
  },
  {
    "zip": 60619,
    "centerName": "Avalon Park",
    "state": "IL"
  },
  {
    "zip": 60620,
    "centerName": "Ashburn",
    "state": "IL"
  },
  {
    "zip": 60621,
    "centerName": "Englewood",
    "state": "IL"
  },
  {
    "zip": 60623,
    "centerName": "Little Village",
    "state": "IL"
  },
  {
    "zip": 60625,
    "centerName": "Portage Park",
    "state": "IL"
  },
  {
    "zip": 60628,
    "centerName": "Avalon Park",
    "state": "IL"
  },
  {
    "zip": 60630,
    "centerName": "Portage Park",
    "state": "IL"
  },
  {
    "zip": 60631,
    "centerName": "Harwood Heights",
    "state": "IL"
  },
  {
    "zip": 60634,
    "centerName": "Harwood Heights",
    "state": "IL"
  },
  {
    "zip": 60636,
    "centerName": "Englewood",
    "state": "IL"
  },
  {
    "zip": 60637,
    "centerName": "Bronzeville",
    "state": "IL"
  },
  {
    "zip": 60638,
    "centerName": "Garfield Ridge",
    "state": "IL"
  },
  {
    "zip": 60639,
    "centerName": "Hermosa",
    "state": "IL"
  },
  {
    "zip": 60641,
    "centerName": "Portage Park",
    "state": "IL"
  },
  {
    "zip": 60643,
    "centerName": "Ashburn",
    "state": "IL"
  },
  {
    "zip": 60646,
    "centerName": "Skokie",
    "state": "IL"
  },
  {
    "zip": 60647,
    "centerName": "Hermosa",
    "state": "IL"
  },
  {
    "zip": 60649,
    "centerName": "Avalon Park",
    "state": "IL"
  },
  {
    "zip": 60652,
    "centerName": "Ashburn",
    "state": "IL"
  },
  {
    "zip": 60653,
    "centerName": "Bronzeville",
    "state": "IL"
  },
  {
    "zip": 60655,
    "centerName": "Blue Island",
    "state": "IL"
  },
  {
    "zip": 60656,
    "centerName": "Harwood Heights",
    "state": "IL"
  },
  {
    "zip": 60666,
    "centerName": "Harwood Heights",
    "state": "IL"
  },
  {
    "zip": 60706,
    "centerName": "Harwood Heights",
    "state": "IL"
  },
  {
    "zip": 60707,
    "centerName": "Bellwood",
    "state": "IL"
  },
  {
    "zip": 60712,
    "centerName": "Skokie",
    "state": "IL"
  },
  {
    "zip": 60714,
    "centerName": "Skokie",
    "state": "IL"
  },
  {
    "zip": 60803,
    "centerName": "Blue Island",
    "state": "IL"
  },
  {
    "zip": 60804,
    "centerName": "Berwyn",
    "state": "IL"
  },
  {
    "zip": 60805,
    "centerName": "Ashburn",
    "state": "IL"
  },
  {
    "zip": 60827,
    "centerName": "Blue Island",
    "state": "IL"
  },
  {
    "zip": 63074,
    "centerName": "Jennings",
    "state": "MO"
  },
  {
    "zip": 63101,
    "centerName": "North City",
    "state": "MO"
  },
  {
    "zip": 63102,
    "centerName": "North City",
    "state": "MO"
  },
  {
    "zip": 63103,
    "centerName": "North City",
    "state": "MO"
  },
  {
    "zip": 63105,
    "centerName": "North City",
    "state": "MO"
  },
  {
    "zip": 63106,
    "centerName": "North City",
    "state": "MO"
  },
  {
    "zip": 63107,
    "centerName": "North City",
    "state": "MO"
  },
  {
    "zip": 63108,
    "centerName": "North City",
    "state": "MO"
  },
  {
    "zip": 63112,
    "centerName": "North City",
    "state": "MO"
  },
  {
    "zip": 63113,
    "centerName": "North City",
    "state": "MO"
  },
  {
    "zip": 63114,
    "centerName": "North City",
    "state": "MO"
  },
  {
    "zip": 63115,
    "centerName": "North City",
    "state": "MO"
  },
  {
    "zip": 63117,
    "centerName": "North City",
    "state": "MO"
  },
  {
    "zip": 63120,
    "centerName": "North City",
    "state": "MO"
  },
  {
    "zip": 63121,
    "centerName": "Jennings",
    "state": "MO"
  },
  {
    "zip": 63124,
    "centerName": "North City",
    "state": "MO"
  },
  {
    "zip": 63130,
    "centerName": "North City",
    "state": "MO"
  },
  {
    "zip": 63132,
    "centerName": "North City",
    "state": "MO"
  },
  {
    "zip": 63133,
    "centerName": "North City",
    "state": "MO"
  },
  {
    "zip": 63134,
    "centerName": "Jennings",
    "state": "MO"
  },
  {
    "zip": 63135,
    "centerName": "Jennings",
    "state": "MO"
  },
  {
    "zip": 63136,
    "centerName": "Jennings",
    "state": "MO"
  },
  {
    "zip": 63137,
    "centerName": "Jennings",
    "state": "MO"
  },
  {
    "zip": 63138,
    "centerName": "Jennings",
    "state": "MO"
  },
  {
    "zip": 63140,
    "centerName": "Jennings",
    "state": "MO"
  },
  {
    "zip": 63147,
    "centerName": "North City",
    "state": "MO"
  },
  {
    "zip": 70001,
    "centerName": "Metairie",
    "state": "LA"
  },
  {
    "zip": 70002,
    "centerName": "Metairie",
    "state": "LA"
  },
  {
    "zip": 70003,
    "centerName": "Metairie",
    "state": "LA"
  },
  {
    "zip": 70005,
    "centerName": "Metairie",
    "state": "LA"
  },
  {
    "zip": 70006,
    "centerName": "Metairie",
    "state": "LA"
  },
  {
    "zip": 70037,
    "centerName": "Terrytown",
    "state": "LA"
  },
  {
    "zip": 70053,
    "centerName": "Terrytown",
    "state": "LA"
  },
  {
    "zip": 70056,
    "centerName": "Terrytown",
    "state": "LA"
  },
  {
    "zip": 70058,
    "centerName": "Terrytown",
    "state": "LA"
  },
  {
    "zip": 70062,
    "centerName": "Metairie",
    "state": "LA"
  },
  {
    "zip": 70065,
    "centerName": "Metairie",
    "state": "LA"
  },
  {
    "zip": 70072,
    "centerName": "Terrytown",
    "state": "LA"
  },
  {
    "zip": 70112,
    "centerName": "South Claiborne",
    "state": "LA"
  },
  {
    "zip": 70113,
    "centerName": "South Claiborne",
    "state": "LA"
  },
  {
    "zip": 70114,
    "centerName": "Terrytown",
    "state": "LA"
  },
  {
    "zip": 70115,
    "centerName": "South Claiborne",
    "state": "LA"
  },
  {
    "zip": 70118,
    "centerName": "South Claiborne",
    "state": "LA"
  },
  {
    "zip": 70119,
    "centerName": "South Claiborne",
    "state": "LA"
  },
  {
    "zip": 70121,
    "centerName": "Metairie",
    "state": "LA"
  },
  {
    "zip": 70123,
    "centerName": "Metairie",
    "state": "LA"
  },
  {
    "zip": 70124,
    "centerName": "Metairie",
    "state": "LA"
  },
  {
    "zip": 70125,
    "centerName": "South Claiborne",
    "state": "LA"
  },
  {
    "zip": 70130,
    "centerName": "South Claiborne",
    "state": "LA"
  },
  {
    "zip": 70131,
    "centerName": "Terrytown",
    "state": "LA"
  },
  {
    "zip": 70454,
    "centerName": "Metairie",
    "state": "LA"
  },
  {
    "zip": 72002,
    "centerName": "Oak Forest",
    "state": "AR"
  },
  {
    "zip": 72022,
    "centerName": "Oak Forest",
    "state": "AR"
  },
  {
    "zip": 72065,
    "centerName": "Oak Forest",
    "state": "AR"
  },
  {
    "zip": 72103,
    "centerName": "Oak Forest",
    "state": "AR"
  },
  {
    "zip": 72114,
    "centerName": "Oak Forest",
    "state": "AR"
  },
  {
    "zip": 72118,
    "centerName": "Oak Forest",
    "state": "AR"
  },
  {
    "zip": 72201,
    "centerName": "Oak Forest",
    "state": "AR"
  },
  {
    "zip": 72202,
    "centerName": "Oak Forest",
    "state": "AR"
  },
  {
    "zip": 72204,
    "centerName": "Oak Forest",
    "state": "AR"
  },
  {
    "zip": 72205,
    "centerName": "Oak Forest",
    "state": "AR"
  },
  {
    "zip": 72206,
    "centerName": "Oak Forest",
    "state": "AR"
  },
  {
    "zip": 72207,
    "centerName": "Oak Forest",
    "state": "AR"
  },
  {
    "zip": 72209,
    "centerName": "Oak Forest",
    "state": "AR"
  },
  {
    "zip": 72210,
    "centerName": "Oak Forest",
    "state": "AR"
  },
  {
    "zip": 72211,
    "centerName": "Oak Forest",
    "state": "AR"
  },
  {
    "zip": 72212,
    "centerName": "Oak Forest",
    "state": "AR"
  },
  {
    "zip": 72223,
    "centerName": "Oak Forest",
    "state": "AR"
  },
  {
    "zip": 72227,
    "centerName": "Oak Forest",
    "state": "AR"
  },
  {
    "zip": 73013,
    "centerName": "23rd st",
    "state": "OK"
  },
  {
    "zip": 73020,
    "centerName": "Midwest City",
    "state": "OK"
  },
  {
    "zip": 73045,
    "centerName": "Midwest City",
    "state": "OK"
  },
  {
    "zip": 73049,
    "centerName": "Midwest City",
    "state": "OK"
  },
  {
    "zip": 73064,
    "centerName": "South OKC",
    "state": "OK"
  },
  {
    "zip": 73065,
    "centerName": "South OKC",
    "state": "OK"
  },
  {
    "zip": 73084,
    "centerName": "Midwest City",
    "state": "OK"
  },
  {
    "zip": 73097,
    "centerName": "South OKC",
    "state": "OK"
  },
  {
    "zip": 73099,
    "centerName": "South OKC",
    "state": "OK"
  },
  {
    "zip": 73102,
    "centerName": "23rd st",
    "state": "OK"
  },
  {
    "zip": 73103,
    "centerName": "23rd st",
    "state": "OK"
  },
  {
    "zip": 73104,
    "centerName": "23rd st",
    "state": "OK"
  },
  {
    "zip": 73105,
    "centerName": "23rd st",
    "state": "OK"
  },
  {
    "zip": 73106,
    "centerName": "23rd st",
    "state": "OK"
  },
  {
    "zip": 73107,
    "centerName": "23rd st",
    "state": "OK"
  },
  {
    "zip": 73108,
    "centerName": "South OKC",
    "state": "OK"
  },
  {
    "zip": 73109,
    "centerName": "South OKC",
    "state": "OK"
  },
  {
    "zip": 73110,
    "centerName": "Midwest City",
    "state": "OK"
  },
  {
    "zip": 73111,
    "centerName": "23rd st",
    "state": "OK"
  },
  {
    "zip": 73112,
    "centerName": "23rd st",
    "state": "OK"
  },
  {
    "zip": 73114,
    "centerName": "23rd st",
    "state": "OK"
  },
  {
    "zip": 73115,
    "centerName": "Midwest City",
    "state": "OK"
  },
  {
    "zip": 73116,
    "centerName": "23rd st",
    "state": "OK"
  },
  {
    "zip": 73117,
    "centerName": "23rd st",
    "state": "OK"
  },
  {
    "zip": 73118,
    "centerName": "23rd st",
    "state": "OK"
  },
  {
    "zip": 73119,
    "centerName": "South OKC",
    "state": "OK"
  },
  {
    "zip": 73120,
    "centerName": "23rd st",
    "state": "OK"
  },
  {
    "zip": 73121,
    "centerName": "23rd st",
    "state": "OK"
  },
  {
    "zip": 73122,
    "centerName": "23rd st",
    "state": "OK"
  },
  {
    "zip": 73127,
    "centerName": "South OKC",
    "state": "OK"
  },
  {
    "zip": 73128,
    "centerName": "South OKC",
    "state": "OK"
  },
  {
    "zip": 73129,
    "centerName": "Midwest City",
    "state": "OK"
  },
  {
    "zip": 73130,
    "centerName": "Midwest City",
    "state": "OK"
  },
  {
    "zip": 73131,
    "centerName": "23rd st",
    "state": "OK"
  },
  {
    "zip": 73135,
    "centerName": "Midwest City",
    "state": "OK"
  },
  {
    "zip": 73139,
    "centerName": "South OKC",
    "state": "OK"
  },
  {
    "zip": 73141,
    "centerName": "23rd st",
    "state": "OK"
  },
  {
    "zip": 73145,
    "centerName": "Midwest City",
    "state": "OK"
  },
  {
    "zip": 73149,
    "centerName": "Midwest City",
    "state": "OK"
  },
  {
    "zip": 73150,
    "centerName": "Midwest City",
    "state": "OK"
  },
  {
    "zip": 73151,
    "centerName": "23rd st",
    "state": "OK"
  },
  {
    "zip": 73159,
    "centerName": "South OKC",
    "state": "OK"
  },
  {
    "zip": 73160,
    "centerName": "South OKC",
    "state": "OK"
  },
  {
    "zip": 73165,
    "centerName": "Midwest City",
    "state": "OK"
  },
  {
    "zip": 73169,
    "centerName": "South OKC",
    "state": "OK"
  },
  {
    "zip": 73170,
    "centerName": "South OKC",
    "state": "OK"
  },
  {
    "zip": 73173,
    "centerName": "South OKC",
    "state": "OK"
  },
  {
    "zip": 73179,
    "centerName": "South OKC",
    "state": "OK"
  },
  {
    "zip": 74011,
    "centerName": "Garnett Plaza",
    "state": "OK"
  },
  {
    "zip": 74012,
    "centerName": "Garnett Plaza",
    "state": "OK"
  },
  {
    "zip": 74014,
    "centerName": "Garnett Plaza",
    "state": "OK"
  },
  {
    "zip": 74015,
    "centerName": "Garnett Plaza",
    "state": "OK"
  },
  {
    "zip": 74055,
    "centerName": "Lewis Ave",
    "state": "OK"
  },
  {
    "zip": 74063,
    "centerName": "Lewis Ave",
    "state": "OK"
  },
  {
    "zip": 74073,
    "centerName": "Lewis Ave",
    "state": "OK"
  },
  {
    "zip": 74103,
    "centerName": "Lewis Ave",
    "state": "OK"
  },
  {
    "zip": 74104,
    "centerName": "Lewis Ave",
    "state": "OK"
  },
  {
    "zip": 74105,
    "centerName": "Lewis Ave",
    "state": "OK"
  },
  {
    "zip": 74106,
    "centerName": "Lewis Ave",
    "state": "OK"
  },
  {
    "zip": 74107,
    "centerName": "Lewis Ave",
    "state": "OK"
  },
  {
    "zip": 74108,
    "centerName": "Garnett Plaza",
    "state": "OK"
  },
  {
    "zip": 74110,
    "centerName": "Lewis Ave",
    "state": "OK"
  },
  {
    "zip": 74112,
    "centerName": "Lewis Ave",
    "state": "OK"
  },
  {
    "zip": 74114,
    "centerName": "Lewis Ave",
    "state": "OK"
  },
  {
    "zip": 74115,
    "centerName": "Lewis Ave",
    "state": "OK"
  },
  {
    "zip": 74116,
    "centerName": "Garnett Plaza",
    "state": "OK"
  },
  {
    "zip": 74117,
    "centerName": "Lewis Ave",
    "state": "OK"
  },
  {
    "zip": 74119,
    "centerName": "Lewis Ave",
    "state": "OK"
  },
  {
    "zip": 74120,
    "centerName": "Lewis Ave",
    "state": "OK"
  },
  {
    "zip": 74126,
    "centerName": "Lewis Ave",
    "state": "OK"
  },
  {
    "zip": 74127,
    "centerName": "Lewis Ave",
    "state": "OK"
  },
  {
    "zip": 74128,
    "centerName": "Garnett Plaza",
    "state": "OK"
  },
  {
    "zip": 74129,
    "centerName": "Garnett Plaza",
    "state": "OK"
  },
  {
    "zip": 74130,
    "centerName": "Lewis Ave",
    "state": "OK"
  },
  {
    "zip": 74133,
    "centerName": "Garnett Plaza",
    "state": "OK"
  },
  {
    "zip": 74134,
    "centerName": "Garnett Plaza",
    "state": "OK"
  },
  {
    "zip": 74135,
    "centerName": "Lewis Ave",
    "state": "OK"
  },
  {
    "zip": 74136,
    "centerName": "Garnett Plaza",
    "state": "OK"
  },
  {
    "zip": 74137,
    "centerName": "Garnett Plaza",
    "state": "OK"
  },
  {
    "zip": 74145,
    "centerName": "Garnett Plaza",
    "state": "OK"
  },
  {
    "zip": 74146,
    "centerName": "Garnett Plaza",
    "state": "OK"
  },
  {
    "zip": 74172,
    "centerName": "Lewis Ave",
    "state": "OK"
  },
  {
    "zip": 74801,
    "centerName": "Midwest City",
    "state": "OK"
  },
  {
    "zip": 74804,
    "centerName": "Midwest City",
    "state": "OK"
  },
  {
    "zip": 74851,
    "centerName": "Midwest City",
    "state": "OK"
  },
  {
    "zip": 74855,
    "centerName": "Midwest City",
    "state": "OK"
  },
  {
    "zip": 74857,
    "centerName": "Midwest City",
    "state": "OK"
  },
  {
    "zip": 75001,
    "centerName": "Carrollton",
    "state": "TX"
  },
  {
    "zip": 75006,
    "centerName": "Carrollton",
    "state": "TX"
  },
  {
    "zip": 75007,
    "centerName": "Carrollton",
    "state": "TX"
  },
  {
    "zip": 75010,
    "centerName": "Carrollton",
    "state": "TX"
  },
  {
    "zip": 75019,
    "centerName": "Carrollton",
    "state": "TX"
  },
  {
    "zip": 75038,
    "centerName": "Irving",
    "state": "TX"
  },
  {
    "zip": 75039,
    "centerName": "Irving",
    "state": "TX"
  },
  {
    "zip": 75040,
    "centerName": "Casa View",
    "state": "TX"
  },
  {
    "zip": 75041,
    "centerName": "Casa View",
    "state": "TX"
  },
  {
    "zip": 75042,
    "centerName": "Casa View",
    "state": "TX"
  },
  {
    "zip": 75043,
    "centerName": "Casa View",
    "state": "TX"
  },
  {
    "zip": 75050,
    "centerName": "Irving",
    "state": "TX"
  },
  {
    "zip": 75051,
    "centerName": "Irving",
    "state": "TX"
  },
  {
    "zip": 75056,
    "centerName": "Carrollton",
    "state": "TX"
  },
  {
    "zip": 75057,
    "centerName": "Carrollton",
    "state": "TX"
  },
  {
    "zip": 75060,
    "centerName": "Irving",
    "state": "TX"
  },
  {
    "zip": 75061,
    "centerName": "Irving",
    "state": "TX"
  },
  {
    "zip": 75062,
    "centerName": "Irving",
    "state": "TX"
  },
  {
    "zip": 75063,
    "centerName": "Carrollton",
    "state": "TX"
  },
  {
    "zip": 75067,
    "centerName": "Carrollton",
    "state": "TX"
  },
  {
    "zip": 75093,
    "centerName": "Carrollton",
    "state": "TX"
  },
  {
    "zip": 75126,
    "centerName": "Mesquite",
    "state": "TX"
  },
  {
    "zip": 75149,
    "centerName": "Mesquite",
    "state": "TX"
  },
  {
    "zip": 75150,
    "centerName": "Mesquite",
    "state": "TX"
  },
  {
    "zip": 75159,
    "centerName": "Pleasant Grove",
    "state": "TX"
  },
  {
    "zip": 75180,
    "centerName": "Pleasant Grove",
    "state": "TX"
  },
  {
    "zip": 75181,
    "centerName": "Mesquite",
    "state": "TX"
  },
  {
    "zip": 75182,
    "centerName": "Mesquite",
    "state": "TX"
  },
  {
    "zip": 75203,
    "centerName": "Irving",
    "state": "TX"
  },
  {
    "zip": 75207,
    "centerName": "Irving",
    "state": "TX"
  },
  {
    "zip": 75208,
    "centerName": "Irving",
    "state": "TX"
  },
  {
    "zip": 75210,
    "centerName": "Pleasant Grove",
    "state": "TX"
  },
  {
    "zip": 75211,
    "centerName": "Irving",
    "state": "TX"
  },
  {
    "zip": 75212,
    "centerName": "Irving",
    "state": "TX"
  },
  {
    "zip": 75215,
    "centerName": "Pleasant Grove",
    "state": "TX"
  },
  {
    "zip": 75216,
    "centerName": "Pleasant Grove",
    "state": "TX"
  },
  {
    "zip": 75217,
    "centerName": "Pleasant Grove",
    "state": "TX"
  },
  {
    "zip": 75218,
    "centerName": "Casa View",
    "state": "TX"
  },
  {
    "zip": 75220,
    "centerName": "Irving",
    "state": "TX"
  },
  {
    "zip": 75223,
    "centerName": "Pleasant Grove",
    "state": "TX"
  },
  {
    "zip": 75224,
    "centerName": "Irving",
    "state": "TX"
  },
  {
    "zip": 75226,
    "centerName": "Pleasant Grove",
    "state": "TX"
  },
  {
    "zip": 75227,
    "centerName": "Pleasant Grove",
    "state": "TX"
  },
  {
    "zip": 75228,
    "centerName": "Casa View",
    "state": "TX"
  },
  {
    "zip": 75229,
    "centerName": "Irving",
    "state": "TX"
  },
  {
    "zip": 75233,
    "centerName": "Irving",
    "state": "TX"
  },
  {
    "zip": 75234,
    "centerName": "Carrollton",
    "state": "TX"
  },
  {
    "zip": 75235,
    "centerName": "Irving",
    "state": "TX"
  },
  {
    "zip": 75236,
    "centerName": "Irving",
    "state": "TX"
  },
  {
    "zip": 75238,
    "centerName": "Casa View",
    "state": "TX"
  },
  {
    "zip": 75241,
    "centerName": "Pleasant Grove",
    "state": "TX"
  },
  {
    "zip": 75244,
    "centerName": "Carrollton",
    "state": "TX"
  },
  {
    "zip": 75247,
    "centerName": "Irving",
    "state": "TX"
  },
  {
    "zip": 75248,
    "centerName": "Carrollton",
    "state": "TX"
  },
  {
    "zip": 75253,
    "centerName": "Pleasant Grove",
    "state": "TX"
  },
  {
    "zip": 75261,
    "centerName": "Irving",
    "state": "TX"
  },
  {
    "zip": 75287,
    "centerName": "Carrollton",
    "state": "TX"
  },
  {
    "zip": 75601,
    "centerName": "Longview",
    "state": "TX"
  },
  {
    "zip": 75602,
    "centerName": "Longview",
    "state": "TX"
  },
  {
    "zip": 75603,
    "centerName": "Longview",
    "state": "TX"
  },
  {
    "zip": 75604,
    "centerName": "Longview",
    "state": "TX"
  },
  {
    "zip": 75605,
    "centerName": "Longview",
    "state": "TX"
  },
  {
    "zip": 75650,
    "centerName": "Longview",
    "state": "TX"
  },
  {
    "zip": 75693,
    "centerName": "Longview",
    "state": "TX"
  },
  {
    "zip": 75701,
    "centerName": "Tyler",
    "state": "TX"
  },
  {
    "zip": 75702,
    "centerName": "Tyler",
    "state": "TX"
  },
  {
    "zip": 75703,
    "centerName": "Tyler",
    "state": "TX"
  },
  {
    "zip": 75704,
    "centerName": "Tyler",
    "state": "TX"
  },
  {
    "zip": 75705,
    "centerName": "Tyler",
    "state": "TX"
  },
  {
    "zip": 75706,
    "centerName": "Tyler",
    "state": "TX"
  },
  {
    "zip": 75707,
    "centerName": "Tyler",
    "state": "TX"
  },
  {
    "zip": 75708,
    "centerName": "Tyler",
    "state": "TX"
  },
  {
    "zip": 75709,
    "centerName": "Tyler",
    "state": "TX"
  },
  {
    "zip": 75762,
    "centerName": "Tyler",
    "state": "TX"
  },
  {
    "zip": 75791,
    "centerName": "Tyler",
    "state": "TX"
  },
  {
    "zip": 75798,
    "centerName": "Tyler",
    "state": "TX"
  },
  {
    "zip": 75799,
    "centerName": "Tyler",
    "state": "TX"
  },
  {
    "zip": 76006,
    "centerName": "Irving",
    "state": "TX"
  },
  {
    "zip": 76008,
    "centerName": "Benbrook",
    "state": "TX"
  },
  {
    "zip": 76021,
    "centerName": "Irving",
    "state": "TX"
  },
  {
    "zip": 76036,
    "centerName": "Benbrook",
    "state": "TX"
  },
  {
    "zip": 76039,
    "centerName": "Irving",
    "state": "TX"
  },
  {
    "zip": 76040,
    "centerName": "Irving",
    "state": "TX"
  },
  {
    "zip": 76051,
    "centerName": "Irving",
    "state": "TX"
  },
  {
    "zip": 76102,
    "centerName": "Meadowbrook",
    "state": "TX"
  },
  {
    "zip": 76103,
    "centerName": "Meadowbrook",
    "state": "TX"
  },
  {
    "zip": 76104,
    "centerName": "Meadowbrook",
    "state": "TX"
  },
  {
    "zip": 76105,
    "centerName": "Meadowbrook",
    "state": "TX"
  },
  {
    "zip": 76106,
    "centerName": "Northside",
    "state": "TX"
  },
  {
    "zip": 76107,
    "centerName": "Northside",
    "state": "TX"
  },
  {
    "zip": 76108,
    "centerName": "Benbrook",
    "state": "TX"
  },
  {
    "zip": 76109,
    "centerName": "Benbrook",
    "state": "TX"
  },
  {
    "zip": 76110,
    "centerName": "Benbrook",
    "state": "TX"
  },
  {
    "zip": 76111,
    "centerName": "Northside",
    "state": "TX"
  },
  {
    "zip": 76112,
    "centerName": "Meadowbrook",
    "state": "TX"
  },
  {
    "zip": 76114,
    "centerName": "Northside",
    "state": "TX"
  },
  {
    "zip": 76115,
    "centerName": "Benbrook",
    "state": "TX"
  },
  {
    "zip": 76116,
    "centerName": "Benbrook",
    "state": "TX"
  },
  {
    "zip": 76117,
    "centerName": "Northside",
    "state": "TX"
  },
  {
    "zip": 76119,
    "centerName": "Meadowbrook",
    "state": "TX"
  },
  {
    "zip": 76120,
    "centerName": "Meadowbrook",
    "state": "TX"
  },
  {
    "zip": 76122,
    "centerName": "Benbrook",
    "state": "TX"
  },
  {
    "zip": 76123,
    "centerName": "Benbrook",
    "state": "TX"
  },
  {
    "zip": 76126,
    "centerName": "Benbrook",
    "state": "TX"
  },
  {
    "zip": 76127,
    "centerName": "Northside",
    "state": "TX"
  },
  {
    "zip": 76129,
    "centerName": "Benbrook",
    "state": "TX"
  },
  {
    "zip": 76132,
    "centerName": "Benbrook",
    "state": "TX"
  },
  {
    "zip": 76133,
    "centerName": "Benbrook",
    "state": "TX"
  },
  {
    "zip": 76134,
    "centerName": "Meadowbrook",
    "state": "TX"
  },
  {
    "zip": 76135,
    "centerName": "Northside",
    "state": "TX"
  },
  {
    "zip": 76137,
    "centerName": "Northside",
    "state": "TX"
  },
  {
    "zip": 76140,
    "centerName": "Meadowbrook",
    "state": "TX"
  },
  {
    "zip": 76155,
    "centerName": "Irving",
    "state": "TX"
  },
  {
    "zip": 76164,
    "centerName": "Northside",
    "state": "TX"
  },
  {
    "zip": 76179,
    "centerName": "Northside",
    "state": "TX"
  },
  {
    "zip": 77002,
    "centerName": "South Wayside",
    "state": "TX"
  },
  {
    "zip": 77003,
    "centerName": "South Wayside",
    "state": "TX"
  },
  {
    "zip": 77004,
    "centerName": "South Wayside",
    "state": "TX"
  },
  {
    "zip": 77005,
    "centerName": "South Wayside",
    "state": "TX"
  },
  {
    "zip": 77006,
    "centerName": "South Wayside",
    "state": "TX"
  },
  {
    "zip": 77007,
    "centerName": "South Wayside",
    "state": "TX"
  },
  {
    "zip": 77008,
    "centerName": "White Oak",
    "state": "TX"
  },
  {
    "zip": 77009,
    "centerName": "Eastex",
    "state": "TX"
  },
  {
    "zip": 77010,
    "centerName": "South Wayside",
    "state": "TX"
  },
  {
    "zip": 77011,
    "centerName": "South Wayside",
    "state": "TX"
  },
  {
    "zip": 77012,
    "centerName": "South Wayside",
    "state": "TX"
  },
  {
    "zip": 77013,
    "centerName": "Northshore",
    "state": "TX"
  },
  {
    "zip": 77014,
    "centerName": "Eastex",
    "state": "TX"
  },
  {
    "zip": 77015,
    "centerName": "Northshore",
    "state": "TX"
  },
  {
    "zip": 77016,
    "centerName": "Eastex",
    "state": "TX"
  },
  {
    "zip": 77017,
    "centerName": "Fairmont Junction",
    "state": "TX"
  },
  {
    "zip": 77018,
    "centerName": "White Oak",
    "state": "TX"
  },
  {
    "zip": 77019,
    "centerName": "South Wayside",
    "state": "TX"
  },
  {
    "zip": 77020,
    "centerName": "South Wayside",
    "state": "TX"
  },
  {
    "zip": 77021,
    "centerName": "South Wayside",
    "state": "TX"
  },
  {
    "zip": 77022,
    "centerName": "Eastex",
    "state": "TX"
  },
  {
    "zip": 77023,
    "centerName": "South Wayside",
    "state": "TX"
  },
  {
    "zip": 77025,
    "centerName": "West Bellfort",
    "state": "TX"
  },
  {
    "zip": 77026,
    "centerName": "Eastex",
    "state": "TX"
  },
  {
    "zip": 77027,
    "centerName": "West Bellfort",
    "state": "TX"
  },
  {
    "zip": 77028,
    "centerName": "Northshore",
    "state": "TX"
  },
  {
    "zip": 77029,
    "centerName": "Northshore",
    "state": "TX"
  },
  {
    "zip": 77030,
    "centerName": "South Wayside",
    "state": "TX"
  },
  {
    "zip": 77031,
    "centerName": "West Bellfort",
    "state": "TX"
  },
  {
    "zip": 77032,
    "centerName": "Eastex",
    "state": "TX"
  },
  {
    "zip": 77033,
    "centerName": "South Wayside",
    "state": "TX"
  },
  {
    "zip": 77034,
    "centerName": "Fairmont Junction",
    "state": "TX"
  },
  {
    "zip": 77035,
    "centerName": "West Bellfort",
    "state": "TX"
  },
  {
    "zip": 77036,
    "centerName": "Mission Bend",
    "state": "TX"
  },
  {
    "zip": 77037,
    "centerName": "Eastex",
    "state": "TX"
  },
  {
    "zip": 77038,
    "centerName": "White Oak",
    "state": "TX"
  },
  {
    "zip": 77039,
    "centerName": "Eastex",
    "state": "TX"
  },
  {
    "zip": 77040,
    "centerName": "White Oak",
    "state": "TX"
  },
  {
    "zip": 77041,
    "centerName": "White Oak",
    "state": "TX"
  },
  {
    "zip": 77042,
    "centerName": "Mission Bend",
    "state": "TX"
  },
  {
    "zip": 77043,
    "centerName": "White Oak",
    "state": "TX"
  },
  {
    "zip": 77044,
    "centerName": "Eastex",
    "state": "TX"
  },
  {
    "zip": 77045,
    "centerName": "West Bellfort",
    "state": "TX"
  },
  {
    "zip": 77047,
    "centerName": "South Wayside",
    "state": "TX"
  },
  {
    "zip": 77048,
    "centerName": "South Wayside",
    "state": "TX"
  },
  {
    "zip": 77049,
    "centerName": "Northshore",
    "state": "TX"
  },
  {
    "zip": 77050,
    "centerName": "Eastex",
    "state": "TX"
  },
  {
    "zip": 77051,
    "centerName": "South Wayside",
    "state": "TX"
  },
  {
    "zip": 77053,
    "centerName": "West Bellfort",
    "state": "TX"
  },
  {
    "zip": 77054,
    "centerName": "West Bellfort",
    "state": "TX"
  },
  {
    "zip": 77055,
    "centerName": "White Oak",
    "state": "TX"
  },
  {
    "zip": 77056,
    "centerName": "West Bellfort",
    "state": "TX"
  },
  {
    "zip": 77057,
    "centerName": "West Bellfort",
    "state": "TX"
  },
  {
    "zip": 77060,
    "centerName": "Eastex",
    "state": "TX"
  },
  {
    "zip": 77061,
    "centerName": "Fairmont Junction",
    "state": "TX"
  },
  {
    "zip": 77063,
    "centerName": "Mission Bend",
    "state": "TX"
  },
  {
    "zip": 77064,
    "centerName": "White Oak",
    "state": "TX"
  },
  {
    "zip": 77066,
    "centerName": "White Oak",
    "state": "TX"
  },
  {
    "zip": 77067,
    "centerName": "White Oak",
    "state": "TX"
  },
  {
    "zip": 77068,
    "centerName": "White Oak",
    "state": "TX"
  },
  {
    "zip": 77070,
    "centerName": "White Oak",
    "state": "TX"
  },
  {
    "zip": 77071,
    "centerName": "West Bellfort",
    "state": "TX"
  },
  {
    "zip": 77072,
    "centerName": "Mission Bend",
    "state": "TX"
  },
  {
    "zip": 77073,
    "centerName": "Eastex",
    "state": "TX"
  },
  {
    "zip": 77074,
    "centerName": "West Bellfort",
    "state": "TX"
  },
  {
    "zip": 77075,
    "centerName": "Fairmont Junction",
    "state": "TX"
  },
  {
    "zip": 77076,
    "centerName": "Eastex",
    "state": "TX"
  },
  {
    "zip": 77077,
    "centerName": "Mission Bend",
    "state": "TX"
  },
  {
    "zip": 77078,
    "centerName": "Eastex",
    "state": "TX"
  },
  {
    "zip": 77080,
    "centerName": "White Oak",
    "state": "TX"
  },
  {
    "zip": 77081,
    "centerName": "West Bellfort",
    "state": "TX"
  },
  {
    "zip": 77082,
    "centerName": "Mission Bend",
    "state": "TX"
  },
  {
    "zip": 77083,
    "centerName": "Mission Bend",
    "state": "TX"
  },
  {
    "zip": 77085,
    "centerName": "West Bellfort",
    "state": "TX"
  },
  {
    "zip": 77086,
    "centerName": "White Oak",
    "state": "TX"
  },
  {
    "zip": 77087,
    "centerName": "South Wayside",
    "state": "TX"
  },
  {
    "zip": 77088,
    "centerName": "White Oak",
    "state": "TX"
  },
  {
    "zip": 77089,
    "centerName": "Fairmont Junction",
    "state": "TX"
  },
  {
    "zip": 77090,
    "centerName": "Eastex",
    "state": "TX"
  },
  {
    "zip": 77091,
    "centerName": "White Oak",
    "state": "TX"
  },
  {
    "zip": 77092,
    "centerName": "White Oak",
    "state": "TX"
  },
  {
    "zip": 77093,
    "centerName": "Eastex",
    "state": "TX"
  },
  {
    "zip": 77094,
    "centerName": "Mission Bend",
    "state": "TX"
  },
  {
    "zip": 77096,
    "centerName": "West Bellfort",
    "state": "TX"
  },
  {
    "zip": 77099,
    "centerName": "Mission Bend",
    "state": "TX"
  },
  {
    "zip": 77204,
    "centerName": "South Wayside",
    "state": "TX"
  },
  {
    "zip": 77338,
    "centerName": "Eastex",
    "state": "TX"
  },
  {
    "zip": 77396,
    "centerName": "Eastex",
    "state": "TX"
  },
  {
    "zip": 77401,
    "centerName": "West Bellfort",
    "state": "TX"
  },
  {
    "zip": 77406,
    "centerName": "Mission Bend",
    "state": "TX"
  },
  {
    "zip": 77407,
    "centerName": "Mission Bend",
    "state": "TX"
  },
  {
    "zip": 77450,
    "centerName": "Mission Bend",
    "state": "TX"
  },
  {
    "zip": 77459,
    "centerName": "West Bellfort",
    "state": "TX"
  },
  {
    "zip": 77477,
    "centerName": "West Bellfort",
    "state": "TX"
  },
  {
    "zip": 77478,
    "centerName": "Mission Bend",
    "state": "TX"
  },
  {
    "zip": 77489,
    "centerName": "West Bellfort",
    "state": "TX"
  },
  {
    "zip": 77498,
    "centerName": "Mission Bend",
    "state": "TX"
  },
  {
    "zip": 77502,
    "centerName": "Fairmont Junction",
    "state": "TX"
  },
  {
    "zip": 77503,
    "centerName": "Fairmont Junction",
    "state": "TX"
  },
  {
    "zip": 77504,
    "centerName": "Fairmont Junction",
    "state": "TX"
  },
  {
    "zip": 77505,
    "centerName": "Fairmont Junction",
    "state": "TX"
  },
  {
    "zip": 77506,
    "centerName": "Northshore",
    "state": "TX"
  },
  {
    "zip": 77520,
    "centerName": "Northshore",
    "state": "TX"
  },
  {
    "zip": 77521,
    "centerName": "Northshore",
    "state": "TX"
  },
  {
    "zip": 77523,
    "centerName": "Northshore",
    "state": "TX"
  },
  {
    "zip": 77530,
    "centerName": "Northshore",
    "state": "TX"
  },
  {
    "zip": 77536,
    "centerName": "Northshore",
    "state": "TX"
  },
  {
    "zip": 77547,
    "centerName": "Northshore",
    "state": "TX"
  },
  {
    "zip": 77562,
    "centerName": "Northshore",
    "state": "TX"
  },
  {
    "zip": 77571,
    "centerName": "Northshore",
    "state": "TX"
  },
  {
    "zip": 77584,
    "centerName": "West Bellfort",
    "state": "TX"
  },
  {
    "zip": 77587,
    "centerName": "Fairmont Junction",
    "state": "TX"
  },
  {
    "zip": 80022,
    "centerName": "Commerce City",
    "state": "CO"
  },
  {
    "zip": 80024,
    "centerName": "Commerce City",
    "state": "CO"
  },
  {
    "zip": 80030,
    "centerName": "Commerce City",
    "state": "CO"
  },
  {
    "zip": 80031,
    "centerName": "Commerce City",
    "state": "CO"
  },
  {
    "zip": 80110,
    "centerName": "Harvey Park",
    "state": "CO"
  },
  {
    "zip": 80113,
    "centerName": "Harvey Park",
    "state": "CO"
  },
  {
    "zip": 80120,
    "centerName": "Harvey Park",
    "state": "CO"
  },
  {
    "zip": 80121,
    "centerName": "Harvey Park",
    "state": "CO"
  },
  {
    "zip": 80123,
    "centerName": "Harvey Park",
    "state": "CO"
  },
  {
    "zip": 80127,
    "centerName": "Harvey Park",
    "state": "CO"
  },
  {
    "zip": 80202,
    "centerName": "Commerce City",
    "state": "CO"
  },
  {
    "zip": 80203,
    "centerName": "Harvey Park",
    "state": "CO"
  },
  {
    "zip": 80204,
    "centerName": "Harvey Park",
    "state": "CO"
  },
  {
    "zip": 80205,
    "centerName": "Commerce City",
    "state": "CO"
  },
  {
    "zip": 80207,
    "centerName": "Commerce City",
    "state": "CO"
  },
  {
    "zip": 80209,
    "centerName": "Harvey Park",
    "state": "CO"
  },
  {
    "zip": 80210,
    "centerName": "Harvey Park",
    "state": "CO"
  },
  {
    "zip": 80211,
    "centerName": "Harvey Park",
    "state": "CO"
  },
  {
    "zip": 80214,
    "centerName": "Harvey Park",
    "state": "CO"
  },
  {
    "zip": 80216,
    "centerName": "Commerce City",
    "state": "CO"
  },
  {
    "zip": 80218,
    "centerName": "Harvey Park",
    "state": "CO"
  },
  {
    "zip": 80219,
    "centerName": "Harvey Park",
    "state": "CO"
  },
  {
    "zip": 80221,
    "centerName": "Commerce City",
    "state": "CO"
  },
  {
    "zip": 80222,
    "centerName": "Harvey Park",
    "state": "CO"
  },
  {
    "zip": 80223,
    "centerName": "Harvey Park",
    "state": "CO"
  },
  {
    "zip": 80226,
    "centerName": "Harvey Park",
    "state": "CO"
  },
  {
    "zip": 80227,
    "centerName": "Harvey Park",
    "state": "CO"
  },
  {
    "zip": 80229,
    "centerName": "Commerce City",
    "state": "CO"
  },
  {
    "zip": 80232,
    "centerName": "Harvey Park",
    "state": "CO"
  },
  {
    "zip": 80233,
    "centerName": "Commerce City",
    "state": "CO"
  },
  {
    "zip": 80235,
    "centerName": "Harvey Park",
    "state": "CO"
  },
  {
    "zip": 80236,
    "centerName": "Harvey Park",
    "state": "CO"
  },
  {
    "zip": 80238,
    "centerName": "Commerce City",
    "state": "CO"
  },
  {
    "zip": 80260,
    "centerName": "Commerce City",
    "state": "CO"
  },
  {
    "zip": 80465,
    "centerName": "Harvey Park",
    "state": "CO"
  },
  {
    "zip": 80601,
    "centerName": "Commerce City",
    "state": "CO"
  },
  {
    "zip": 80640,
    "centerName": "Commerce City",
    "state": "CO"
  },
  {
    "zip": 85003,
    "centerName": "Wedgewood Park",
    "state": "AZ"
  },
  {
    "zip": 85004,
    "centerName": "Wedgewood Park",
    "state": "AZ"
  },
  {
    "zip": 85006,
    "centerName": "Desert Palms",
    "state": "AZ"
  },
  {
    "zip": 85007,
    "centerName": "Wedgewood Park",
    "state": "AZ"
  },
  {
    "zip": 85008,
    "centerName": "Desert Palms",
    "state": "AZ"
  },
  {
    "zip": 85009,
    "centerName": "Wedgewood Park",
    "state": "AZ"
  },
  {
    "zip": 85012,
    "centerName": "Encanto Village",
    "state": "AZ"
  },
  {
    "zip": 85013,
    "centerName": "Encanto Village",
    "state": "AZ"
  },
  {
    "zip": 85014,
    "centerName": "Encanto Village",
    "state": "AZ"
  },
  {
    "zip": 85015,
    "centerName": "Encanto Village",
    "state": "AZ"
  },
  {
    "zip": 85016,
    "centerName": "Desert Palms",
    "state": "AZ"
  },
  {
    "zip": 85017,
    "centerName": "Encanto Village",
    "state": "AZ"
  },
  {
    "zip": 85018,
    "centerName": "Desert Palms",
    "state": "AZ"
  },
  {
    "zip": 85019,
    "centerName": "Glen Ave",
    "state": "AZ"
  },
  {
    "zip": 85020,
    "centerName": "Glen Ave",
    "state": "AZ"
  },
  {
    "zip": 85021,
    "centerName": "Glen Ave",
    "state": "AZ"
  },
  {
    "zip": 85023,
    "centerName": "Glen Ave",
    "state": "AZ"
  },
  {
    "zip": 85027,
    "centerName": "Glen Ave",
    "state": "AZ"
  },
  {
    "zip": 85029,
    "centerName": "Glen Ave",
    "state": "AZ"
  },
  {
    "zip": 85031,
    "centerName": "Wedgewood Park",
    "state": "AZ"
  },
  {
    "zip": 85033,
    "centerName": "Glenfair",
    "state": "AZ"
  },
  {
    "zip": 85034,
    "centerName": "Desert Palms",
    "state": "AZ"
  },
  {
    "zip": 85035,
    "centerName": "Wedgewood Park",
    "state": "AZ"
  },
  {
    "zip": 85037,
    "centerName": "Wedgewood Park",
    "state": "AZ"
  },
  {
    "zip": 85040,
    "centerName": "South Tempe",
    "state": "AZ"
  },
  {
    "zip": 85041,
    "centerName": "Wedgewood Park",
    "state": "AZ"
  },
  {
    "zip": 85042,
    "centerName": "South Tempe",
    "state": "AZ"
  },
  {
    "zip": 85043,
    "centerName": "Wedgewood Park",
    "state": "AZ"
  },
  {
    "zip": 85044,
    "centerName": "South Tempe",
    "state": "AZ"
  },
  {
    "zip": 85048,
    "centerName": "South Tempe",
    "state": "AZ"
  },
  {
    "zip": 85051,
    "centerName": "Glen Ave",
    "state": "AZ"
  },
  {
    "zip": 85053,
    "centerName": "Glen Ave",
    "state": "AZ"
  },
  {
    "zip": 85118,
    "centerName": "Apache Trail",
    "state": "AZ"
  },
  {
    "zip": 85119,
    "centerName": "Apache Trail",
    "state": "AZ"
  },
  {
    "zip": 85120,
    "centerName": "Apache Trail",
    "state": "AZ"
  },
  {
    "zip": 85140,
    "centerName": "Apache Trail",
    "state": "AZ"
  },
  {
    "zip": 85201,
    "centerName": "East Mesa",
    "state": "AZ"
  },
  {
    "zip": 85203,
    "centerName": "East Mesa",
    "state": "AZ"
  },
  {
    "zip": 85204,
    "centerName": "East Mesa",
    "state": "AZ"
  },
  {
    "zip": 85205,
    "centerName": "East Mesa",
    "state": "AZ"
  },
  {
    "zip": 85206,
    "centerName": "East Mesa",
    "state": "AZ"
  },
  {
    "zip": 85207,
    "centerName": "Apache Trail",
    "state": "AZ"
  },
  {
    "zip": 85208,
    "centerName": "Apache Trail",
    "state": "AZ"
  },
  {
    "zip": 85209,
    "centerName": "Apache Trail",
    "state": "AZ"
  },
  {
    "zip": 85210,
    "centerName": "East Mesa",
    "state": "AZ"
  },
  {
    "zip": 85212,
    "centerName": "Apache Trail",
    "state": "AZ"
  },
  {
    "zip": 85213,
    "centerName": "East Mesa",
    "state": "AZ"
  },
  {
    "zip": 85215,
    "centerName": "East Mesa",
    "state": "AZ"
  },
  {
    "zip": 85226,
    "centerName": "South Tempe",
    "state": "AZ"
  },
  {
    "zip": 85234,
    "centerName": "East Mesa",
    "state": "AZ"
  },
  {
    "zip": 85251,
    "centerName": "Desert Palms",
    "state": "AZ"
  },
  {
    "zip": 85253,
    "centerName": "Desert Palms",
    "state": "AZ"
  },
  {
    "zip": 85256,
    "centerName": "East Mesa",
    "state": "AZ"
  },
  {
    "zip": 85257,
    "centerName": "Desert Palms",
    "state": "AZ"
  },
  {
    "zip": 85264,
    "centerName": "Apache Trail",
    "state": "AZ"
  },
  {
    "zip": 85281,
    "centerName": "South Tempe",
    "state": "AZ"
  },
  {
    "zip": 85282,
    "centerName": "South Tempe",
    "state": "AZ"
  },
  {
    "zip": 85283,
    "centerName": "South Tempe",
    "state": "AZ"
  },
  {
    "zip": 85284,
    "centerName": "South Tempe",
    "state": "AZ"
  },
  {
    "zip": 85287,
    "centerName": "South Tempe",
    "state": "AZ"
  },
  {
    "zip": 85301,
    "centerName": "Glenfair",
    "state": "AZ"
  },
  {
    "zip": 85302,
    "centerName": "Glenfair",
    "state": "AZ"
  },
  {
    "zip": 85303,
    "centerName": "Glenfair",
    "state": "AZ"
  },
  {
    "zip": 85304,
    "centerName": "Glenfair",
    "state": "AZ"
  },
  {
    "zip": 85305,
    "centerName": "Glenfair",
    "state": "AZ"
  },
  {
    "zip": 85306,
    "centerName": "Glen Ave",
    "state": "AZ"
  },
  {
    "zip": 85323,
    "centerName": "Wedgewood Park",
    "state": "AZ"
  },
  {
    "zip": 85339,
    "centerName": "Wedgewood Park",
    "state": "AZ"
  },
  {
    "zip": 85345,
    "centerName": "Glenfair",
    "state": "AZ"
  },
  {
    "zip": 85353,
    "centerName": "Wedgewood Park",
    "state": "AZ"
  },
  {
    "zip": 85381,
    "centerName": "Glenfair",
    "state": "AZ"
  },
  {
    "zip": 85392,
    "centerName": "Wedgewood Park",
    "state": "AZ"
  },
  {
    "zip": 85701,
    "centerName": "Colonia",
    "state": "AZ"
  },
  {
    "zip": 85706,
    "centerName": "Colonia",
    "state": "AZ"
  },
  {
    "zip": 85709,
    "centerName": "Colonia",
    "state": "AZ"
  },
  {
    "zip": 85713,
    "centerName": "Colonia",
    "state": "AZ"
  },
  {
    "zip": 85714,
    "centerName": "Colonia",
    "state": "AZ"
  },
  {
    "zip": 85735,
    "centerName": "Colonia",
    "state": "AZ"
  },
  {
    "zip": 85745,
    "centerName": "Colonia",
    "state": "AZ"
  },
  {
    "zip": 85746,
    "centerName": "Colonia",
    "state": "AZ"
  },
  {
    "zip": 85756,
    "centerName": "Colonia",
    "state": "AZ"
  },
  {
    "zip": 85757,
    "centerName": "Colonia",
    "state": "AZ"
  },
  {
    "zip": 87031,
    "centerName": "Rio Bravo",
    "state": "NM"
  },
  {
    "zip": 87042,
    "centerName": "Rio Bravo",
    "state": "NM"
  },
  {
    "zip": 87068,
    "centerName": "Rio Bravo",
    "state": "NM"
  },
  {
    "zip": 87102,
    "centerName": "Atrisco",
    "state": "NM"
  },
  {
    "zip": 87104,
    "centerName": "Atrisco",
    "state": "NM"
  },
  {
    "zip": 87105,
    "centerName": "Rio Bravo",
    "state": "NM"
  },
  {
    "zip": 87106,
    "centerName": "Rio Bravo",
    "state": "NM"
  },
  {
    "zip": 87108,
    "centerName": "Zuni Road",
    "state": "NM"
  },
  {
    "zip": 87110,
    "centerName": "Zuni Road",
    "state": "NM"
  },
  {
    "zip": 87112,
    "centerName": "Zuni Road",
    "state": "NM"
  },
  {
    "zip": 87116,
    "centerName": "Zuni Road",
    "state": "NM"
  },
  {
    "zip": 87117,
    "centerName": "Zuni Road",
    "state": "NM"
  },
  {
    "zip": 87120,
    "centerName": "Atrisco",
    "state": "NM"
  },
  {
    "zip": 87121,
    "centerName": "Rio Bravo",
    "state": "NM"
  },
  {
    "zip": 87123,
    "centerName": "Zuni Road",
    "state": "NM"
  },
  {
    "zip": 87131,
    "centerName": "Atrisco",
    "state": "NM"
  },
  {
    "zip": 64101,
    "centerName": "Strawberry Hill",
    "state": "KS"
  },
  {
    "zip": 64102,
    "centerName": "Strawberry Hill",
    "state": "KS"
  },
  {
    "zip": 64105,
    "centerName": "Strawberry Hill",
    "state": "KS"
  },
  {
    "zip": 64106,
    "centerName": "Strawberry Hill",
    "state": "KS"
  },
  {
    "zip": 64108,
    "centerName": "Strawberry Hill",
    "state": "KS"
  },
  {
    "zip": 64109,
    "centerName": "Strawberry Hill",
    "state": "KS"
  },
  {
    "zip": 64111,
    "centerName": "Strawberry Hill",
    "state": "KS"
  },
  {
    "zip": 64116,
    "centerName": "Strawberry Hill",
    "state": "KS"
  },
  {
    "zip": 64117,
    "centerName": "Strawberry Hill",
    "state": "KS"
  },
  {
    "zip": 64118,
    "centerName": "Strawberry Hill",
    "state": "KS"
  },
  {
    "zip": 64119,
    "centerName": "Strawberry Hill",
    "state": "KS"
  },
  {
    "zip": 64120,
    "centerName": "Strawberry Hill",
    "state": "KS"
  },
  {
    "zip": 64123,
    "centerName": "Strawberry Hill",
    "state": "KS"
  },
  {
    "zip": 64124,
    "centerName": "Strawberry Hill",
    "state": "KS"
  },
  {
    "zip": 64125,
    "centerName": "Strawberry Hill",
    "state": "KS"
  },
  {
    "zip": 64127,
    "centerName": "Strawberry Hill",
    "state": "KS"
  },
  {
    "zip": 64128,
    "centerName": "Strawberry Hill",
    "state": "KS"
  },
  {
    "zip": 64150,
    "centerName": "Strawberry Hill",
    "state": "KS"
  },
  {
    "zip": 64151,
    "centerName": "Strawberry Hill",
    "state": "KS"
  },
  {
    "zip": 64152,
    "centerName": "Strawberry Hill",
    "state": "KS"
  },
  {
    "zip": 64153,
    "centerName": "Strawberry Hill",
    "state": "KS"
  },
  {
    "zip": 66101,
    "centerName": "Strawberry Hill",
    "state": "KS"
  },
  {
    "zip": 66102,
    "centerName": "Strawberry Hill",
    "state": "KS"
  },
  {
    "zip": 66103,
    "centerName": "Strawberry Hill",
    "state": "KS"
  },
  {
    "zip": 66104,
    "centerName": "Strawberry Hill",
    "state": "KS"
  },
  {
    "zip": 66105,
    "centerName": "Strawberry Hill",
    "state": "KS"
  },
  {
    "zip": 66106,
    "centerName": "Strawberry Hill",
    "state": "KS"
  },
  {
    "zip": 66109,
    "centerName": "Strawberry Hill",
    "state": "KS"
  },
  {
    "zip": 66111,
    "centerName": "Strawberry Hill",
    "state": "KS"
  },
  {
    "zip": 66112,
    "centerName": "Strawberry Hill",
    "state": "KS"
  },
  {
    "zip": 66115,
    "centerName": "Strawberry Hill",
    "state": "KS"
  },
  {
    "zip": 66118,
    "centerName": "Strawberry Hill",
    "state": "KS"
  },
  {
    "zip": 66160,
    "centerName": "Strawberry Hill",
    "state": "KS"
  },
  {
    "zip": 66202,
    "centerName": "Strawberry Hill",
    "state": "KS"
  },
  {
    "zip": 66203,
    "centerName": "Strawberry Hill",
    "state": "KS"
  },
  {
    "zip": 66205,
    "centerName": "Strawberry Hill",
    "state": "KS"
  },
  {
    "zip": 38105,
    "centerName": "Overton Park",
    "state": "TN"
  },
  {
    "zip": 38112,
    "centerName": "Overton Park",
    "state": "TN"
  },
  {
    "zip": 38104,
    "centerName": "Overton Park",
    "state": "TN"
  },
  {
    "zip": 38107,
    "centerName": "Overton Park",
    "state": "TN"
  },
  {
    "zip": 38114,
    "centerName": "Overton Park",
    "state": "TN"
  },
  {
    "zip": 38111,
    "centerName": "Overton Park",
    "state": "TN"
  },
  {
    "zip": 38117,
    "centerName": "Overton Park",
    "state": "TN"
  },
  {
    "zip": 38122,
    "centerName": "Overton Park",
    "state": "TN"
  },
  {
    "zip": 38108,
    "centerName": "Overton Park",
    "state": "TN"
  },
  {
    "zip": 38109,
    "centerName": "Overton Park",
    "state": "TN"
  },
  {
    "zip": 38127,
    "centerName": "Overton Park",
    "state": "TN"
  },
  {
    "zip": 38106,
    "centerName": "Overton Park",
    "state": "TN"
  },
  {
    "zip": 38134,
    "centerName": "Overton Park",
    "state": "TN"
  },
  {
    "zip": 38018,
    "centerName": "Overton Park",
    "state": "TN"
  },
  {
    "zip": 38116,
    "centerName": "Overton Park",
    "state": "TN"
  },
  {
    "zip": 38002,
    "centerName": "Overton Park",
    "state": "TN"
  },
  {
    "zip": 38119,
    "centerName": "Overton Park",
    "state": "TN"
  },
  {
    "zip": 38128,
    "centerName": "Overton Park",
    "state": "TN"
  },
  {
    "zip": 38017,
    "centerName": "Overton Park",
    "state": "TN"
  },
  {
    "zip": 38115,
    "centerName": "Overton Park",
    "state": "TN"
  },
  {
    "zip": 38138,
    "centerName": "Overton Park",
    "state": "TN"
  },
  {
    "zip": 46368,
    "centerName": "Midtown",
    "state": "IN"
  },
  {
    "zip": 46391,
    "centerName": "Midtown",
    "state": "IN"
  },
  {
    "zip": 46360,
    "centerName": "Midtown",
    "state": "IN"
  },
  {
    "zip": 10457,
    "centerName": "Soundview",
    "state": "NY"
  },
  {
    "zip": 10462,
    "centerName": "Soundview",
    "state": "NY"
  },
  {
    "zip": 10459,
    "centerName": "Soundview",
    "state": "NY"
  },
  {
    "zip": 10458,
    "centerName": "Soundview",
    "state": "NY"
  },
  {
    "zip": 10456,
    "centerName": "Soundview",
    "state": "NY"
  },
  {
    "zip": 10461,
    "centerName": "Soundview",
    "state": "NY"
  },
  {
    "zip": 10453,
    "centerName": "Soundview",
    "state": "NY"
  },
  {
    "zip": 11691,
    "centerName": "Far Rockaway",
    "state": "NY"
  },
  {
    "zip": 11096,
    "centerName": "Far Rockaway",
    "state": "NY"
  },
  {
    "zip": 11692,
    "centerName": "Far Rockaway",
    "state": "NY"
  },
  {
    "zip": 11509,
    "centerName": "Far Rockaway",
    "state": "NY"
  },
  {
    "zip": 11516,
    "centerName": "Far Rockaway",
    "state": "NY"
  },
  {
    "zip": 11559,
    "centerName": "Far Rockaway",
    "state": "NY"
  },
  {
    "zip": 11693,
    "centerName": "Far Rockaway",
    "state": "NY"
  },
  {
    "zip": 11430,
    "centerName": "Far Rockaway",
    "state": "NY"
  },
  {
    "zip": 11598,
    "centerName": "Far Rockaway",
    "state": "NY"
  },
  {
    "zip": 11437,
    "centerName": "Far Rockaway",
    "state": "NY"
  },
  {
    "zip": 11422,
    "centerName": "Far Rockaway",
    "state": "NY"
  },
  {
    "zip": 11557,
    "centerName": "Far Rockaway",
    "state": "NY"
  },
  {
    "zip": 11581,
    "centerName": "Far Rockaway",
    "state": "NY"
  },
  {
    "zip": 11413,
    "centerName": "Far Rockaway",
    "state": "NY"
  },
  {
    "zip": 11694,
    "centerName": "Far Rockaway",
    "state": "NY"
  },
  {
    "zip": 10462,
    "centerName": "Parkchester",
    "state": "NY"
  },
  {
    "zip": 10461,
    "centerName": "Parkchester",
    "state": "NY"
  },
  {
    "zip": 10472,
    "centerName": "Parkchester",
    "state": "NY"
  },
  {
    "zip": 10460,
    "centerName": "Parkchester",
    "state": "NY"
  },
  {
    "zip": 10473,
    "centerName": "Parkchester",
    "state": "NY"
  },
  {
    "zip": 10469,
    "centerName": "Parkchester",
    "state": "NY"
  },
  {
    "zip": 77023,
    "centerName": "South Wayside",
    "state": "TX"
  },
  {
    "zip": 77011,
    "centerName": "South Wayside",
    "state": "TX"
  },
  {
    "zip": 77087,
    "centerName": "South Wayside",
    "state": "TX"
  },
  {
    "zip": 77003,
    "centerName": "South Wayside",
    "state": "TX"
  },
  {
    "zip": 77004,
    "centerName": "South Wayside",
    "state": "TX"
  },
  {
    "zip": 77021,
    "centerName": "South Wayside",
    "state": "TX"
  },
  {
    "zip": 77012,
    "centerName": "South Wayside",
    "state": "TX"
  },
  {
    "zip": 77010,
    "centerName": "South Wayside",
    "state": "TX"
  },
  {
    "zip": 77020,
    "centerName": "South Wayside",
    "state": "TX"
  },
  {
    "zip": 77002,
    "centerName": "South Wayside",
    "state": "TX"
  },
  {
    "zip": 77033,
    "centerName": "South Wayside",
    "state": "TX"
  },
  {
    "zip": 77201,
    "centerName": "South Wayside",
    "state": "TX"
  },
  {
    "zip": 77204,
    "centerName": "South Wayside",
    "state": "TX"
  },
  {
    "zip": 77212,
    "centerName": "South Wayside",
    "state": "TX"
  },
  {
    "zip": 77216,
    "centerName": "South Wayside",
    "state": "TX"
  },
  {
    "zip": 77297,
    "centerName": "South Wayside",
    "state": "TX"
  },
  {
    "zip": 77299,
    "centerName": "South Wayside",
    "state": "TX"
  },
  {
    "zip": 77017,
    "centerName": "South Wayside",
    "state": "TX"
  },
  {
    "zip": 77029,
    "centerName": "South Wayside",
    "state": "TX"
  },
  {
    "zip": 77006,
    "centerName": "South Wayside",
    "state": "TX"
  },
  {
    "zip": 11229,
    "centerName": "Canarsie",
    "state": "NY"
  },
  {
    "zip": 11210,
    "centerName": "Canarsie",
    "state": "NY"
  },
  {
    "zip": 11235,
    "centerName": "Canarsie",
    "state": "NY"
  },
  {
    "zip": 11203,
    "centerName": "Canarsie",
    "state": "NY"
  },
  {
    "zip": 60637,
    "centerName": "Englewood",
    "state": "IL"
  },
  {
    "zip": 60620,
    "centerName": "Englewood",
    "state": "IL"
  },
  {
    "zip": 60609,
    "centerName": "Englewood",
    "state": "IL"
  },
  {
    "zip": 60615,
    "centerName": "Englewood",
    "state": "IL"
  },
  {
    "zip": 60619,
    "centerName": "Englewood",
    "state": "IL"
  },
  {
    "zip": 60653,
    "centerName": "Englewood",
    "state": "IL"
  },
  {
    "zip": 60629,
    "centerName": "Englewood",
    "state": "IL"
  },
  {
    "zip": 60649,
    "centerName": "Englewood",
    "state": "IL"
  },
  {
    "zip": 60652,
    "centerName": "Englewood",
    "state": "IL"
  },
  {
    "zip": 60632,
    "centerName": "Englewood",
    "state": "IL"
  },
  {
    "zip": 60616,
    "centerName": "Englewood",
    "state": "IL"
  },
  {
    "zip": 60805,
    "centerName": "Englewood",
    "state": "IL"
  },
  {
    "zip": 19111,
    "centerName": "Fern Rock",
    "state": "PA"
  },
  {
    "zip": 19027,
    "centerName": "Fern Rock",
    "state": "PA"
  },
  {
    "zip": 19149,
    "centerName": "Fern Rock",
    "state": "PA"
  },
  {
    "zip": 19141,
    "centerName": "Fern Rock",
    "state": "PA"
  },
  {
    "zip": 19046,
    "centerName": "Fern Rock",
    "state": "PA"
  },
  {
    "zip": 19124,
    "centerName": "Fern Rock",
    "state": "PA"
  },
  {
    "zip": 19138,
    "centerName": "Fern Rock",
    "state": "PA"
  },
  {
    "zip": 60707,
    "centerName": "Hermosa",
    "state": "IL"
  },
  {
    "zip": 60160,
    "centerName": "Hermosa",
    "state": "IL"
  },
  {
    "zip": 60634,
    "centerName": "Hermosa",
    "state": "IL"
  },
  {
    "zip": 60305,
    "centerName": "Hermosa",
    "state": "IL"
  },
  {
    "zip": 60131,
    "centerName": "Hermosa",
    "state": "IL"
  },
  {
    "zip": 60165,
    "centerName": "Hermosa",
    "state": "IL"
  },
  {
    "zip": 60164,
    "centerName": "Hermosa",
    "state": "IL"
  },
  {
    "zip": 60153,
    "centerName": "Hermosa",
    "state": "IL"
  },
  {
    "zip": 60176,
    "centerName": "Hermosa",
    "state": "IL"
  },
  {
    "zip": 60695,
    "centerName": "Little Village",
    "state": "IL"
  },
  {
    "zip": 60699,
    "centerName": "Little Village",
    "state": "IL"
  },
  {
    "zip": 60697,
    "centerName": "Little Village",
    "state": "IL"
  },
  {
    "zip": 60696,
    "centerName": "Little Village",
    "state": "IL"
  },
  {
    "zip": 60694,
    "centerName": "Little Village",
    "state": "IL"
  },
  {
    "zip": 60693,
    "centerName": "Little Village",
    "state": "IL"
  },
  {
    "zip": 60688,
    "centerName": "Little Village",
    "state": "IL"
  },
  {
    "zip": 60687,
    "centerName": "Little Village",
    "state": "IL"
  },
  {
    "zip": 60686,
    "centerName": "Little Village",
    "state": "IL"
  },
  {
    "zip": 60685,
    "centerName": "Little Village",
    "state": "IL"
  },
  {
    "zip": 60684,
    "centerName": "Little Village",
    "state": "IL"
  },
  {
    "zip": 60678,
    "centerName": "Little Village",
    "state": "IL"
  },
  {
    "zip": 60677,
    "centerName": "Little Village",
    "state": "IL"
  },
  {
    "zip": 60675,
    "centerName": "Little Village",
    "state": "IL"
  },
  {
    "zip": 60673,
    "centerName": "Little Village",
    "state": "IL"
  },
  {
    "zip": 60670,
    "centerName": "Little Village",
    "state": "IL"
  },
  {
    "zip": 60669,
    "centerName": "Little Village",
    "state": "IL"
  },
  {
    "zip": 60668,
    "centerName": "Little Village",
    "state": "IL"
  },
  {
    "zip": 60701,
    "centerName": "Little Village",
    "state": "IL"
  },
  {
    "zip": 11208,
    "centerName": "Sutter Ave",
    "state": "NY"
  },
  {
    "zip": 11239,
    "centerName": "Sutter Ave",
    "state": "NY"
  },
  {
    "zip": 19139,
    "centerName": "University City",
    "state": "PA"
  },
  {
    "zip": 19143,
    "centerName": "University City",
    "state": "PA"
  },
  {
    "zip": 19131,
    "centerName": "University City",
    "state": "PA"
  },
  {
    "zip": 72124,
    "centerName": "Lakewood",
    "state": "AR"
  },
  {
    "zip": 72115,
    "centerName": "Lakewood",
    "state": "AR"
  },
  {
    "zip": 72190,
    "centerName": "Lakewood",
    "state": "AR"
  },
  {
    "zip": 72114,
    "centerName": "Lakewood",
    "state": "AR"
  },
  {
    "zip": 72119,
    "centerName": "Lakewood",
    "state": "AR"
  },
  {
    "zip": 72292,
    "centerName": "Lakewood",
    "state": "AR"
  },
  {
    "zip": 72292,
    "centerName": "Lakewood",
    "state": "AR"
  },
  {
    "zip": 72222,
    "centerName": "Lakewood",
    "state": "AR"
  },
  {
    "zip": 72260,
    "centerName": "Lakewood",
    "state": "AR"
  },
  {
    "zip": 72231,
    "centerName": "Lakewood",
    "state": "AR"
  },
  {
    "zip": 72201,
    "centerName": "Lakewood",
    "state": "AR"
  },
  {
    "zip": 72203,
    "centerName": "Lakewood",
    "state": "AR"
  },
  {
    "zip": 72225,
    "centerName": "Lakewood",
    "state": "AR"
  },
  {
    "zip": 72221,
    "centerName": "Lakewood",
    "state": "AR"
  },
  {
    "zip": 72219,
    "centerName": "Lakewood",
    "state": "AR"
  },
  {
    "zip": 72217,
    "centerName": "Lakewood",
    "state": "AR"
  },
  {
    "zip": 72216,
    "centerName": "Lakewood",
    "state": "AR"
  },
  {
    "zip": 72215,
    "centerName": "Lakewood",
    "state": "AR"
  },
  {
    "zip": 72214,
    "centerName": "Lakewood",
    "state": "AR"
  },
  {
    "zip": 72295,
    "centerName": "Lakewood",
    "state": "AR"
  },
  {
    "zip": 18505,
    "centerName": "Scranton",
    "state": "PA"
  },
  {
    "zip": 18510,
    "centerName": "Scranton",
    "state": "PA"
  },
  {
    "zip": 18501,
    "centerName": "Scranton",
    "state": "PA"
  },
  {
    "zip": 18502,
    "centerName": "Scranton",
    "state": "PA"
  },
  {
    "zip": 18540,
    "centerName": "Scranton",
    "state": "PA"
  },
  {
    "zip": 18577,
    "centerName": "Scranton",
    "state": "PA"
  },
  {
    "zip": 18515,
    "centerName": "Scranton",
    "state": "PA"
  },
  {
    "zip": 18503,
    "centerName": "Scranton",
    "state": "PA"
  },
  {
    "zip": 18507,
    "centerName": "Scranton",
    "state": "PA"
  },
  {
    "zip": 18507,
    "centerName": "Scranton",
    "state": "PA"
  },
  {
    "zip": 18509,
    "centerName": "Scranton",
    "state": "PA"
  },
  {
    "zip": 18517,
    "centerName": "Scranton",
    "state": "PA"
  },
  {
    "zip": 18512,
    "centerName": "Scranton",
    "state": "PA"
  },
  {
    "zip": 18508,
    "centerName": "Scranton",
    "state": "PA"
  }
]